shelter_name,location,requested_items,source_platform,post_details,details,latitude,longitude,reference_agency,reference_url,hours_open,hours_close,state,city
Test Shelter,"123 Test Lane, Washington, DC, 20003",,,,"Status=CLOSED, evac_cap=0, post_cap=0, pop(g/m/o)=0/0/0, org=Federal Emergency Management Agency - Region 10",38.88115961,-76.9911414,FEMA ESF6-SS (Shelter Locations layer),https://gis.fema.gov/arcgis/rest/services/NSS/FEMA_NSS/FeatureServer/5,,,DC,Washington
Fort Stanton Rec Center ,"1812 Erie Street SE, Washington , DC, 20020",,,,"Status=CLOSED, evac_cap=0, post_cap=150, pop(g/m/o)=17/None/None, org=None",38.85735945,-76.97871653,FEMA ESF6-SS (Shelter Locations layer),https://gis.fema.gov/arcgis/rest/services/NSS/FEMA_NSS/FeatureServer/5,,,DC,Washington 
Anacostia High School,"1601 16th St SE, WASHINGTON, DC, 20032",,,,"Status=CLOSED, evac_cap=531, post_cap=266, pop(g/m/o)=0/0/0, org=NATIONAL CAPITAL AREA",38.86996868,-76.98226895,FEMA ESF6-SS (Shelter Locations layer),https://gis.fema.gov/arcgis/rest/services/NSS/FEMA_NSS/FeatureServer/5,,,DC,WASHINGTON
Bald Eagle Recreation Center,"100 Joliet St SW, WASHINGTON, DC, 20032",,,,"Status=CLOSED, evac_cap=469, post_cap=160, pop(g/m/o)=0/0/0, org=NATIONAL CAPITAL AREA",38.82170207,-77.00543548,FEMA ESF6-SS (Shelter Locations layer),https://gis.fema.gov/arcgis/rest/services/NSS/FEMA_NSS/FeatureServer/5,,,DC,WASHINGTON
Ballou Senior High School,"3401 4TH ST. SE., WASHINGTON, DC, 20032",,,,"Status=CLOSED, evac_cap=655, post_cap=327, pop(g/m/o)=0/0/0, org=NATIONAL CAPITAL AREA",38.8402371,-77.00055216,FEMA ESF6-SS (Shelter Locations layer),https://gis.fema.gov/arcgis/rest/services/NSS/FEMA_NSS/FeatureServer/5,,,DC,WASHINGTON
Bancroft Elementary School,"1755 Newton St NW, WASHINGTON, DC, 20010",,,,"Status=CLOSED, evac_cap=134, post_cap=0, pop(g/m/o)=0/0/0, org=NATIONAL CAPITAL AREA",38.9341533,-77.04034716,FEMA ESF6-SS (Shelter Locations layer),https://gis.fema.gov/arcgis/rest/services/NSS/FEMA_NSS/FeatureServer/5,,,DC,WASHINGTON
Banneker Recreation Center,"2500 Georgia Ave NW, WASHINGTON, DC, 20001",,,,"Status=CLOSED, evac_cap=90, post_cap=45, pop(g/m/o)=0/0/0, org=NATIONAL CAPITAL AREA",38.92329848,-77.02237871,FEMA ESF6-SS (Shelter Locations layer),https://gis.fema.gov/arcgis/rest/services/NSS/FEMA_NSS/FeatureServer/5,,,DC,WASHINGTON
Banneker Senior High School,"800 Ecluid St. NW, WASHINGTON, DC, 20001",,,,"Status=CLOSED, evac_cap=390, post_cap=196, pop(g/m/o)=0/0/0, org=NATIONAL CAPITAL AREA",38.92411686,-77.02348488,FEMA ESF6-SS (Shelter Locations layer),https://gis.fema.gov/arcgis/rest/services/NSS/FEMA_NSS/FeatureServer/5,,,DC,WASHINGTON
Barnard Elementary School,"430 Decatur Street NW, WASHINGTON, DC, 20011",,,,"Status=CLOSED, evac_cap=144, post_cap=0, pop(g/m/o)=0/0/0, org=NATIONAL CAPITAL AREA",38.94845252,-77.01806196,FEMA ESF6-SS (Shelter Locations layer),https://gis.fema.gov/arcgis/rest/services/NSS/FEMA_NSS/FeatureServer/5,,,DC,WASHINGTON
Bell Multicultural High School,"3101 16th St NW, WASHINGTON, DC, 20010",,,,"Status=CLOSED, evac_cap=646, post_cap=323, pop(g/m/o)=0/0/0, org=NATIONAL CAPITAL AREA",38.92870186,-77.03636929,FEMA ESF6-SS (Shelter Locations layer),https://gis.fema.gov/arcgis/rest/services/NSS/FEMA_NSS/FeatureServer/5,,,DC,WASHINGTON
Abingdon High School,"705 Thompson Drive, ABINGDON, VA, 24210",,,,"Status=CLOSED, evac_cap=665, post_cap=332, pop(g/m/o)=None/None/None, org=None",36.7199633,-81.954392,FEMA ESF6-SS (Shelter Locations layer),https://gis.fema.gov/arcgis/rest/services/NSS/FEMA_NSS/FeatureServer/5,,,VA,ABINGDON
Pleasant View United Methodist Church,"18410 Lee Highway, ABINGDON, VA, 24210",,,,"Status=CLOSED, evac_cap=724, post_cap=362, pop(g/m/o)=1/None/None, org=None",36.6945592,-82.0187586,FEMA ESF6-SS (Shelter Locations layer),https://gis.fema.gov/arcgis/rest/services/NSS/FEMA_NSS/FeatureServer/5,,,VA,ABINGDON
Rockfish River Elementary School,"200 CHAPEL HOLLOW RD, AFTON, VA, 22920",,,,"Status=CLOSED, evac_cap=326, post_cap=163, pop(g/m/o)=0/0/0, org=CENTRAL VIRGINIA CHAPTER",37.94323532,-78.84075389,FEMA ESF6-SS (Shelter Locations layer),https://gis.fema.gov/arcgis/rest/services/NSS/FEMA_NSS/FeatureServer/5,,,VA,AFTON
Rockfish Valley Community Center Incorporated,"190 ROCKFISH SCHOOL LN, AFTON, VA, 22920",,,,"Status=CLOSED, evac_cap=172, post_cap=86, pop(g/m/o)=0/0/0, org=CENTRAL VIRGINIA CHAPTER",37.925087,-78.85182455,FEMA ESF6-SS (Shelter Locations layer),https://gis.fema.gov/arcgis/rest/services/NSS/FEMA_NSS/FeatureServer/5,,,VA,AFTON
Aldie Middle School,"23269 MEETINGHOUSE  RD, ALDIE, VA, 20105",,,,"Status=CLOSED, evac_cap=300, post_cap=150, pop(g/m/o)=0/0/0, org=LOUDOUN COUNTY CHAPTER",38.97360655,-77.64370231,FEMA ESF6-SS (Shelter Locations layer),https://gis.fema.gov/arcgis/rest/services/NSS/FEMA_NSS/FeatureServer/5,,,VA,ALDIE
John Champe High School,"41535 Sacred Mountain Street, ALDIE, VA, 20105",,,,"Status=CLOSED, evac_cap=820, post_cap=410, pop(g/m/o)=None/None/None, org=None",38.931,-77.567,FEMA ESF6-SS (Shelter Locations layer),https://gis.fema.gov/arcgis/rest/services/NSS/FEMA_NSS/FeatureServer/5,,,VA,ALDIE
CHARLES BARRETT SCHOOL,"1115 MARTHA CUSTIS DR, Alexandria, VA, 22302",,,,"Status=CLOSED, evac_cap=226, post_cap=113, pop(g/m/o)=0/0/0, org=ALEXANDRIA CHAPTER",38.8417771,-77.07721303,FEMA ESF6-SS (Shelter Locations layer),https://gis.fema.gov/arcgis/rest/services/NSS/FEMA_NSS/FeatureServer/5,,,VA,Alexandria
Cora Kelly Community Center,"25 West Reed Avenue, Alexandria, VA, 22305",,,,"Status=CLOSED, evac_cap=0, post_cap=222, pop(g/m/o)=0/0/0, org=ALEXANDRIA CHAPTER",38.8367837,-77.05722744,FEMA ESF6-SS (Shelter Locations layer),https://gis.fema.gov/arcgis/rest/services/NSS/FEMA_NSS/FeatureServer/5,,,VA,Alexandria
George Mason Elementary School,"2601 CAMERON MILLS RD, Alexandria, VA, 22302",,,,"Status=CLOSED, evac_cap=217, post_cap=108, pop(g/m/o)=0/0/0, org=ALEXANDRIA CHAPTER",38.82814121,-77.07364906,FEMA ESF6-SS (Shelter Locations layer),https://gis.fema.gov/arcgis/rest/services/NSS/FEMA_NSS/FeatureServer/5,,,VA,Alexandria
GEORGE WASHINGTON MIDDLE SCHOOL,"1005 MOUNT VERNON AVE, Alexandria, VA, 22301",,,,"Status=CLOSED, evac_cap=624, post_cap=312, pop(g/m/o)=0/0/0, org=ALEXANDRIA CHAPTER",38.81590144,-77.0567508,FEMA ESF6-SS (Shelter Locations layer),https://gis.fema.gov/arcgis/rest/services/NSS/FEMA_NSS/FeatureServer/5,,,VA,Alexandria
Aberdeen High School,"251 Paradise Road, ABERDEEN, MD, 21001",,,,"Status=CLOSED, evac_cap=500, post_cap=250, pop(g/m/o)=0/0/None, org=CENTRAL MARYLAND CHAPTER",39.516062,-76.170171,FEMA ESF6-SS (Shelter Locations layer),https://gis.fema.gov/arcgis/rest/services/NSS/FEMA_NSS/FeatureServer/5,,,MD,ABERDEEN
Accident Elementary School,"534 Accident Bittinger Road, ACCIDENT, MD, 21520",,,,"Status=CLOSED, evac_cap=50, post_cap=25, pop(g/m/o)=0/0/0, org=WESTERN POTOMAC CHAPTER",39.58310407,-79.28235698,FEMA ESF6-SS (Shelter Locations layer),https://gis.fema.gov/arcgis/rest/services/NSS/FEMA_NSS/FeatureServer/5,,,MD,ACCIDENT
Accident Volunteer Fire Department,"109 South Street, ACCIDENT, MD, 21520",,,,"Status=CLOSED, evac_cap=40, post_cap=20, pop(g/m/o)=0/0/0, org=WESTERN POTOMAC CHAPTER",39.62649636,-79.32072206,FEMA ESF6-SS (Shelter Locations layer),https://gis.fema.gov/arcgis/rest/services/NSS/FEMA_NSS/FeatureServer/5,,,MD,ACCIDENT
Cherry Glade Mennonite Church,"4051 Accident Bittinger Road, ACCIDENT, MD, 21520",,,,"Status=CLOSED, evac_cap=1810, post_cap=905, pop(g/m/o)=None/None/None, org=None",39.58829661,-79.29388885,FEMA ESF6-SS (Shelter Locations layer),https://gis.fema.gov/arcgis/rest/services/NSS/FEMA_NSS/FeatureServer/5,,,MD,ACCIDENT
Hickory Environmental Education Center,"604 Pride Parkway, ACCIDENT, MD, 21520",,,,"Status=CLOSED, evac_cap=40, post_cap=20, pop(g/m/o)=0/0/0, org=WESTERN POTOMAC CHAPTER",39.66522117,-79.3014406,FEMA ESF6-SS (Shelter Locations layer),https://gis.fema.gov/arcgis/rest/services/NSS/FEMA_NSS/FeatureServer/5,,,MD,ACCIDENT
Northern Garrett High School,"86 Pride Parkway, ACCIDENT, MD, 21520",,,,"Status=CLOSED, evac_cap=140, post_cap=70, pop(g/m/o)=0/0/0, org=WESTERN POTOMAC CHAPTER",39.66553593,-79.29628748,FEMA ESF6-SS (Shelter Locations layer),https://gis.fema.gov/arcgis/rest/services/NSS/FEMA_NSS/FeatureServer/5,,,MD,ACCIDENT
Northern Middle School,"371 Pride Parkway, ACCIDENT, MD, 21520",,,,"Status=CLOSED, evac_cap=75, post_cap=38, pop(g/m/o)=0/0/0, org=WESTERN POTOMAC CHAPTER",39.66592264,-79.29999269,FEMA ESF6-SS (Shelter Locations layer),https://gis.fema.gov/arcgis/rest/services/NSS/FEMA_NSS/FeatureServer/5,,,MD,ACCIDENT
Allen Community Hall,"26679 Collins Wharf Rd., ALLEN, MD, 21810",,,,"Status=CLOSED, evac_cap=85, post_cap=0, pop(g/m/o)=0/0/0, org=LOWER SHORE CHAPTER",38.37533431,-75.61828612,FEMA ESF6-SS (Shelter Locations layer),https://gis.fema.gov/arcgis/rest/services/NSS/FEMA_NSS/FeatureServer/5,,,MD,ALLEN
Pip Moyer Rec Center,"273 Hilltop Lane , Annapolis, MD, 21043",,,,"Status=CLOSED, evac_cap=None, post_cap=None, pop(g/m/o)=0/None/None, org=None",,,FEMA ESF6-SS (Shelter Locations layer),https://gis.fema.gov/arcgis/rest/services/NSS/FEMA_NSS/FeatureServer/5,,,MD,Annapolis
Annapolis High School,"2700 Riva Road, ANNAPOLIS, MD, 21401",,,,"Status=CLOSED, evac_cap=500, post_cap=300, pop(g/m/o)=0/0/0, org=CENTRAL MARYLAND CHAPTER",38.97289609,-76.5624924,FEMA ESF6-SS (Shelter Locations layer),https://gis.fema.gov/arcgis/rest/services/NSS/FEMA_NSS/FeatureServer/5,,,MD,ANNAPOLIS
Adams Fire Department,"6 North Main Street, ADAMS, NY, 13605",,,,"Status=CLOSED, evac_cap=150, post_cap=75, pop(g/m/o)=110/None/None, org=None",43.80949521,-76.02402869,FEMA ESF6-SS (Shelter Locations layer),https://gis.fema.gov/arcgis/rest/services/NSS/FEMA_NSS/FeatureServer/5,,,NY,ADAMS
Adams Fire Deptment,"4 SOUTH MAIN STREET, ADAMS, NY, 13605",,,,"Status=CLOSED, evac_cap=120, post_cap=60, pop(g/m/o)=0/0/0, org=NORTHERN NEW YORK",43.80757038,-76.02456293,FEMA ESF6-SS (Shelter Locations layer),https://gis.fema.gov/arcgis/rest/services/NSS/FEMA_NSS/FeatureServer/5,,,NY,ADAMS
Smithville Fire District,"13727 COUNTY ROUTE 63, ADAMS, NY, 13605",,,,"Status=CLOSED, evac_cap=20, post_cap=20, pop(g/m/o)=None/None/None, org=NORTHERN NEW YORK",43.87643641,-76.09956377,FEMA ESF6-SS (Shelter Locations layer),https://gis.fema.gov/arcgis/rest/services/NSS/FEMA_NSS/FeatureServer/5,,,NY,ADAMS
Tuscarora Elementary School ,"7 Cleveland Drive, Addison , NY, 14801",,,,"Status=CLOSED, evac_cap=0, post_cap=163, pop(g/m/o)=0/0/0, org=GREATER STEUBEN",42.18868437,-76.66440094,FEMA ESF6-SS (Shelter Locations layer),https://gis.fema.gov/arcgis/rest/services/NSS/FEMA_NSS/FeatureServer/5,,,NY,Addison 
Addison Jr. / Sr. High School,"1 Colwell St., ADDISON, NY, 14801",,,,"Status=CLOSED, evac_cap=411, post_cap=0, pop(g/m/o)=0/None/None, org=GREATER STEUBEN",42.10629592,-77.23263121,FEMA ESF6-SS (Shelter Locations layer),https://gis.fema.gov/arcgis/rest/services/NSS/FEMA_NSS/FeatureServer/5,,,NY,ADDISON
Tuscarora Elementary School,"7 Cleveland Drive, ADDISON, NY, 14801",,,,"Status=CLOSED, evac_cap=200, post_cap=95, pop(g/m/o)=None/None/None, org=GREATER STEUBEN",42.10266266,-77.23282906,FEMA ESF6-SS (Shelter Locations layer),https://gis.fema.gov/arcgis/rest/services/NSS/FEMA_NSS/FeatureServer/5,,,NY,ADDISON
AFTON CENTRAL SCHOOL,"29 Academy Street, AFTON, NY, 13730",,,,"Status=CLOSED, evac_cap=1951, post_cap=160, pop(g/m/o)=0/0/0, org=SOUTHERN TIER",42.22999766,-75.52727382,FEMA ESF6-SS (Shelter Locations layer),https://gis.fema.gov/arcgis/rest/services/NSS/FEMA_NSS/FeatureServer/5,,,NY,AFTON
Higher Ground Christian Church,"96 East Main Street, AFTON, NY, 13730",,,,"Status=CLOSED, evac_cap=180, post_cap=80, pop(g/m/o)=0/0/0, org=SOUTHERN TIER",42.22458374,-75.52006126,FEMA ESF6-SS (Shelter Locations layer),https://gis.fema.gov/arcgis/rest/services/NSS/FEMA_NSS/FeatureServer/5,,,NY,AFTON
Akron Central School District,"47 Bloomingdale Ave., AKRON, NY, 14001",,,,"Status=CLOSED, evac_cap=19146, post_cap=0, pop(g/m/o)=0/None/None, org=GREATER BUFFALO CHAPTER",43.02407203,-78.49165507,FEMA ESF6-SS (Shelter Locations layer),https://gis.fema.gov/arcgis/rest/services/NSS/FEMA_NSS/FeatureServer/5,,,NY,AKRON
Akron Fire Hall,"1 Main Street, AKRON, NY, 14001",,,,"Status=CLOSED, evac_cap=400, post_cap=0, pop(g/m/o)=0/0/0, org=GREATER BUFFALO CHAPTER",43.02012401,-78.50299552,FEMA ESF6-SS (Shelter Locations layer),https://gis.fema.gov/arcgis/rest/services/NSS/FEMA_NSS/FeatureServer/5,,,NY,AKRON
Santa Fe High School,"16213 NW US Hwy 441, Alachua, FL, 32615",,,,"Status=CLOSED, evac_cap=0, post_cap=340, pop(g/m/o)=0/None/None, org=NORTH CENTRAL FLORIDA CHAPTER",29.80352584,-82.52215423,FEMA ESF6-SS (Shelter Locations layer),https://gis.fema.gov/arcgis/rest/services/NSS/FEMA_NSS/FeatureServer/5,,,FL,Alachua
Alachua Elementary School,"13800 NW 152nd pl., ALACHUA, FL, 32615",,,,"Status=CLOSED, evac_cap=91, post_cap=0, pop(g/m/o)=0/None/None, org=NORTH CENTRAL FLORIDA CHAPTER",29.79474625,-82.49320883,FEMA ESF6-SS (Shelter Locations layer),https://gis.fema.gov/arcgis/rest/services/NSS/FEMA_NSS/FeatureServer/5,,,FL,ALACHUA
A L MEBANE MIDDLE SCHOOL,"16401 NW 140TH ST, ALACHUA, FL, 32615",,,,"Status=CLOSED, evac_cap=0, post_cap=162, pop(g/m/o)=0/0/0, org=NORTH CENTRAL FLORIDA CHAPTER",29.81023453,-82.49414172,FEMA ESF6-SS (Shelter Locations layer),https://gis.fema.gov/arcgis/rest/services/NSS/FEMA_NSS/FeatureServer/5,,,FL,ALACHUA
Canvas Church B1,"15551 NW US Hwy 441 #1, ALACHUA, FL, 32615",,,,"Status=CLOSED, evac_cap=1072, post_cap=536, pop(g/m/o)=None/None/None, org=None",29.7989307,-82.4993891,FEMA ESF6-SS (Shelter Locations layer),https://gis.fema.gov/arcgis/rest/services/NSS/FEMA_NSS/FeatureServer/5,,,FL,ALACHUA
Canvas Church B2,"15551 NW US Hwy 441 #1, ALACHUA, FL, 32615",,,,"Status=CLOSED, evac_cap=450, post_cap=225, pop(g/m/o)=None/None/None, org=None",29.7989307,-82.4993891,FEMA ESF6-SS (Shelter Locations layer),https://gis.fema.gov/arcgis/rest/services/NSS/FEMA_NSS/FeatureServer/5,,,FL,ALACHUA
First Baptist Church of Alachua,"14005 NW 146 Avenue, ALACHUA, FL, 32615",,,,"Status=CLOSED, evac_cap=0, post_cap=154, pop(g/m/o)=None/None/None, org=None",29.7886165,-82.4945213,FEMA ESF6-SS (Shelter Locations layer),https://gis.fema.gov/arcgis/rest/services/NSS/FEMA_NSS/FeatureServer/5,,,FL,ALACHUA
Irby Elementary School Special Needs,"13505 NW 140th St, ALACHUA, FL, 32615",,,,"Status=CLOSED, evac_cap=1, post_cap=0, pop(g/m/o)=0/0/0, org=Florida Department of Health",29.78153717,-82.49415071,FEMA ESF6-SS (Shelter Locations layer),https://gis.fema.gov/arcgis/rest/services/NSS/FEMA_NSS/FeatureServer/5,,,FL,ALACHUA
W W IRBY ELEMENTARY SCHOOL,"13505 NW 104TH ST, ALACHUA, FL, 32615",,,,"Status=CLOSED, evac_cap=0, post_cap=20, pop(g/m/o)=0/0/0, org=NORTH CENTRAL FLORIDA CHAPTER",29.77759551,-82.45786924,FEMA ESF6-SS (Shelter Locations layer),https://gis.fema.gov/arcgis/rest/services/NSS/FEMA_NSS/FeatureServer/5,,,FL,ALACHUA
W. W. Irby Elementary Special Needs,"13505 NW 140th St., ALACHUA, FL, 32615",,,,"Status=CLOSED, evac_cap=0, post_cap=182, pop(g/m/o)=None/None/None, org=None",29.779263,-82.492562,FEMA ESF6-SS (Shelter Locations layer),https://gis.fema.gov/arcgis/rest/services/NSS/FEMA_NSS/FeatureServer/5,,,FL,ALACHUA
Lake Brantley High School,"991 SAND LAKE RD, ALTAMONTE SPRINGS, FL, 32714",,,,"Status=CLOSED, evac_cap=580, post_cap=290, pop(g/m/o)=0/0/0, org=CENTRAL FLORIDA",28.68004754,-81.42067497,FEMA ESF6-SS (Shelter Locations layer),https://gis.fema.gov/arcgis/rest/services/NSS/FEMA_NSS/FeatureServer/5,,,FL,ALTAMONTE SPRINGS
BLANK,"00 Blank, WASHINGTON, DC, 20055",,,,"Status=CLOSED, evac_cap=1, post_cap=1, pop(g/m/o)=None/None/None, org=MISSING",38.91360618,-77.01321864,FEMA ESF6-SS (Shelter Locations layer),https://gis.fema.gov/arcgis/rest/services/NSS/FEMA_NSS/FeatureServer/5,,,DC,WASHINGTON
James K Polk Elementary School,"5000 POLK AVE, Alexandria, VA, 22304",,,,"Status=CLOSED, evac_cap=147, post_cap=74, pop(g/m/o)=0/0/0, org=ALEXANDRIA CHAPTER",38.82105456,-77.11476606,FEMA ESF6-SS (Shelter Locations layer),https://gis.fema.gov/arcgis/rest/services/NSS/FEMA_NSS/FeatureServer/5,,,VA,Alexandria
5th Regiment Armory,"219 29th Division Street, BALTIMORE, MD, 21201",,,,"Status=CLOSED, evac_cap=400, post_cap=0, pop(g/m/o)=0/0/None, org=CENTRAL MARYLAND CHAPTER",39.30365208,-76.62209285,FEMA ESF6-SS (Shelter Locations layer),https://gis.fema.gov/arcgis/rest/services/NSS/FEMA_NSS/FeatureServer/5,,,MD,BALTIMORE
Newstead Fire Company,"5691 Cummings Road, AKRON, NY, 14001",,,,"Status=CLOSED, evac_cap=686, post_cap=0, pop(g/m/o)=0/0/0, org=GREATER BUFFALO CHAPTER",43.00267716,-78.51710588,FEMA ESF6-SS (Shelter Locations layer),https://gis.fema.gov/arcgis/rest/services/NSS/FEMA_NSS/FeatureServer/5,,,NY,AKRON
Saint Mary Magdalen Catholic Church,"710 Spring Lake Rd., Suite 1200, ALTAMONTE SPRINGS, FL, 32701",,,,"Status=CLOSED, evac_cap=780, post_cap=390, pop(g/m/o)=None/None/None, org=CENTRAL FLORIDA",28.64556754,-81.36561848,FEMA ESF6-SS (Shelter Locations layer),https://gis.fema.gov/arcgis/rest/services/NSS/FEMA_NSS/FeatureServer/5,,,FL,ALTAMONTE SPRINGS
Brent Elementary School,"330 3RD ST. SE, WASHINGTON, DC, 20019",,,,"Status=CLOSED, evac_cap=295, post_cap=148, pop(g/m/o)=0/0/0, org=NATIONAL CAPITAL AREA",38.88549098,-77.00203605,FEMA ESF6-SS (Shelter Locations layer),https://gis.fema.gov/arcgis/rest/services/NSS/FEMA_NSS/FeatureServer/5,,,DC,WASHINGTON
Jefferson Houston Elementary School,"1501 CAMERON ST, Alexandria, VA, 22314",,,,"Status=CLOSED, evac_cap=165, post_cap=83, pop(g/m/o)=0/0/0, org=ALEXANDRIA CHAPTER",38.8073309,-77.0554198,FEMA ESF6-SS (Shelter Locations layer),https://gis.fema.gov/arcgis/rest/services/NSS/FEMA_NSS/FeatureServer/5,,,VA,Alexandria
American Red Cross of The Chesapeake Region,"4800 Mount Hope Drive, BALTIMORE, MD, 21215",,,,"Status=CLOSED, evac_cap=50, post_cap=50, pop(g/m/o)=0/0/None, org=CENTRAL MD CHAPTER",39.34727486,-76.71109638,FEMA ESF6-SS (Shelter Locations layer),https://gis.fema.gov/arcgis/rest/services/NSS/FEMA_NSS/FeatureServer/5,,,MD,BALTIMORE
WOLCOTTSVILLE FIRE COMPANY,"6337 Wolcottsville Road, AKRON, NY, 14001",,,,"Status=CLOSED, evac_cap=300, post_cap=150, pop(g/m/o)=0/0/0, org=NIAGARA COUNTY CHAPTER",43.13642434,-78.52484005,FEMA ESF6-SS (Shelter Locations layer),https://gis.fema.gov/arcgis/rest/services/NSS/FEMA_NSS/FeatureServer/5,,,NY,AKRON
Mossy Pond Library,"22216 Lake McKenzie Blvd, Altha, FL, 32421",,,,"Status=CLOSED, evac_cap=None, post_cap=None, pop(g/m/o)=0/None/None, org=ARC Partner",,,FEMA ESF6-SS (Shelter Locations layer),https://gis.fema.gov/arcgis/rest/services/NSS/FEMA_NSS/FeatureServer/5,,,FL,Altha
Brightwood Elementary School,"1300 Nicholson St. NW, WASHINGTON, DC, 20011",,,,"Status=CLOSED, evac_cap=162, post_cap=0, pop(g/m/o)=0/0/0, org=NATIONAL CAPITAL AREA",38.96018867,-77.03029274,FEMA ESF6-SS (Shelter Locations layer),https://gis.fema.gov/arcgis/rest/services/NSS/FEMA_NSS/FeatureServer/5,,,DC,WASHINGTON
John Adams School Recreation Center,"5651 RAYBURN AVE, Alexandria, VA, 22311",,,,"Status=CLOSED, evac_cap=348, post_cap=174, pop(g/m/o)=0/0/0, org=ALEXANDRIA CHAPTER",38.83248494,-77.12575578,FEMA ESF6-SS (Shelter Locations layer),https://gis.fema.gov/arcgis/rest/services/NSS/FEMA_NSS/FeatureServer/5,,,VA,Alexandria
Back River Recreation Center,"801 Back River Neck Road, BALTIMORE, MD, 21221",,,,"Status=CLOSED, evac_cap=550, post_cap=275, pop(g/m/o)=None/None/None, org=None",39.29565504,-76.43905837,FEMA ESF6-SS (Shelter Locations layer),https://gis.fema.gov/arcgis/rest/services/NSS/FEMA_NSS/FeatureServer/5,,,MD,BALTIMORE
ABROOKIN VO-TECH CENTER,"99 KENT STREET, ALBANY, NY, 12206",,,,"Status=CLOSED, evac_cap=280, post_cap=140, pop(g/m/o)=0/0/0, org=AMERICAN RED CROSS OF NORTHEASTERN NY",42.66854306,-73.78067353,FEMA ESF6-SS (Shelter Locations layer),https://gis.fema.gov/arcgis/rest/services/NSS/FEMA_NSS/FeatureServer/5,,,NY,ALBANY
Altha School,"25793 N Main St, ALTHA, FL, 32421",,,,"Status=CLOSED, evac_cap=2231, post_cap=837, pop(g/m/o)=0/None/None, org=CENTRAL PANHANDLE CHAPTER",30.57363445,-85.12712584,FEMA ESF6-SS (Shelter Locations layer),https://gis.fema.gov/arcgis/rest/services/NSS/FEMA_NSS/FeatureServer/5,,,FL,ALTHA
Browne Junior High School,"850 26TH ST. NE, WASHINGTON, DC, 20002",,,,"Status=CLOSED, evac_cap=288, post_cap=0, pop(g/m/o)=0/0/0, org=NATIONAL CAPITAL AREA",38.90194857,-76.97016407,FEMA ESF6-SS (Shelter Locations layer),https://gis.fema.gov/arcgis/rest/services/NSS/FEMA_NSS/FeatureServer/5,,,DC,WASHINGTON
LYLES CROUCH SCHOOL,"530 S SAINT ASAPH ST, Alexandria, VA, 22314",,,,"Status=CLOSED, evac_cap=139, post_cap=70, pop(g/m/o)=0/0/0, org=ALEXANDRIA CHAPTER",38.80001042,-77.04688524,FEMA ESF6-SS (Shelter Locations layer),https://gis.fema.gov/arcgis/rest/services/NSS/FEMA_NSS/FeatureServer/5,,,VA,Alexandria
Baltimore City Convention Center,"1 West Pratt Street, BALTIMORE, MD, 21201",,,,"Status=CLOSED, evac_cap=15000, post_cap=7500, pop(g/m/o)=None/None/None, org=American Red Cross Of The Chesapeake Region",39.2864805,-76.6148898,FEMA ESF6-SS (Shelter Locations layer),https://gis.fema.gov/arcgis/rest/services/NSS/FEMA_NSS/FeatureServer/5,,,MD,BALTIMORE
ALBANY HIGH SCHOOL (Albany NY),"700 WASHINGTON AVE, ALBANY, NY, 12203",,,,"Status=CLOSED, evac_cap=1800, post_cap=900, pop(g/m/o)=0/0/0, org=AMERICAN RED CROSS OF NORTHEASTERN NY",42.6678236,-73.78246318,FEMA ESF6-SS (Shelter Locations layer),https://gis.fema.gov/arcgis/rest/services/NSS/FEMA_NSS/FeatureServer/5,,,NY,ALBANY
Mossy Pond Community Center,"22216 Lake McKinzie Blvd, ALTHA, FL, 32421",,,,"Status=CLOSED, evac_cap=1, post_cap=1, pop(g/m/o)=0/None/None, org=None",30.525848,-85.3133816,FEMA ESF6-SS (Shelter Locations layer),https://gis.fema.gov/arcgis/rest/services/NSS/FEMA_NSS/FeatureServer/5,,,FL,ALTHA
Burrville Elementary School,"801 Division Street NE, WASHINGTON, DC, 20019",,,,"Status=CLOSED, evac_cap=234, post_cap=117, pop(g/m/o)=0/0/0, org=NATIONAL CAPITAL AREA",38.89988013,-76.92503609,FEMA ESF6-SS (Shelter Locations layer),https://gis.fema.gov/arcgis/rest/services/NSS/FEMA_NSS/FeatureServer/5,,,DC,WASHINGTON
Maury Elementary School,"600 RUSSELL RD, Alexandria, VA, 22301",,,,"Status=CLOSED, evac_cap=187, post_cap=94, pop(g/m/o)=0/0/0, org=ALEXANDRIA CHAPTER",38.81271784,-77.06444,FEMA ESF6-SS (Shelter Locations layer),https://gis.fema.gov/arcgis/rest/services/NSS/FEMA_NSS/FeatureServer/5,,,VA,Alexandria
Baltimore Junior Academy,"3006 West Cold Spring Lane, BALTIMORE, MD, 21215",,,,"Status=CLOSED, evac_cap=75, post_cap=50, pop(g/m/o)=0/None/None, org=American Red Cross Of The Chesapeake Region",39.3375382,-76.671987,FEMA ESF6-SS (Shelter Locations layer),https://gis.fema.gov/arcgis/rest/services/NSS/FEMA_NSS/FeatureServer/5,,,MD,BALTIMORE
Albany School Of Humanities (ASH),"108 WHITEHALL ROAD, ALBANY, NY, 12209",,,,"Status=CLOSED, evac_cap=596, post_cap=298, pop(g/m/o)=0/0/0, org=AMERICAN RED CROSS OF NORTHEASTERN NY",42.64186017,-73.7888034,FEMA ESF6-SS (Shelter Locations layer),https://gis.fema.gov/arcgis/rest/services/NSS/FEMA_NSS/FeatureServer/5,,,NY,ALBANY
Alva  Elementary School,"17500 Church St., ALVA, FL, 33920",,,,"Status=CLOSED, evac_cap=283, post_cap=140, pop(g/m/o)=0/0/0, org=LEE COUNTY FLORIDA",26.71740916,-81.61078971,FEMA ESF6-SS (Shelter Locations layer),https://gis.fema.gov/arcgis/rest/services/NSS/FEMA_NSS/FeatureServer/5,,,FL,ALVA
Chevy Chase Community Center,"5601 CONNECTICUT AVE NW, WASHINGTON, DC, 20015",,,,"Status=CLOSED, evac_cap=80, post_cap=0, pop(g/m/o)=0/0/0, org=NATIONAL CAPITAL AREA",38.9649191,-77.0755826,FEMA ESF6-SS (Shelter Locations layer),https://gis.fema.gov/arcgis/rest/services/NSS/FEMA_NSS/FeatureServer/5,,,DC,WASHINGTON
Minnie Howard School,"3801 W BRADDOCK RD, Alexandria, VA, 22303",,,,"Status=CLOSED, evac_cap=329, post_cap=164, pop(g/m/o)=0/0/0, org=ALEXANDRIA CHAPTER",38.82744874,-77.09500796,FEMA ESF6-SS (Shelter Locations layer),https://gis.fema.gov/arcgis/rest/services/NSS/FEMA_NSS/FeatureServer/5,,,VA,Alexandria
Bengies Chase Community Center,"11601 Eastern Avenue, BALTIMORE, MD, 21220",,,,"Status=CLOSED, evac_cap=45, post_cap=22, pop(g/m/o)=None/None/None, org=None",39.34217854,-76.39584374,FEMA ESF6-SS (Shelter Locations layer),https://gis.fema.gov/arcgis/rest/services/NSS/FEMA_NSS/FeatureServer/5,,,MD,BALTIMORE
Arbor Hill Elementary School,"1 ARBOR DRIVE, ALBANY, NY, 12207",,,,"Status=CLOSED, evac_cap=280, post_cap=140, pop(g/m/o)=0/0/0, org=AMERICAN RED CROSS OF NORTHEASTERN NY",42.66131251,-73.74896343,FEMA ESF6-SS (Shelter Locations layer),https://gis.fema.gov/arcgis/rest/services/NSS/FEMA_NSS/FeatureServer/5,,,NY,ALBANY
Alva Middle School,"17500 Church Ave, ALVA, FL, 33920",,,,"Status=CLOSED, evac_cap=0, post_cap=0, pop(g/m/o)=0/0/0, org=LEE COUNTY FLORIDA",26.72567688,-81.59758061,FEMA ESF6-SS (Shelter Locations layer),https://gis.fema.gov/arcgis/rest/services/NSS/FEMA_NSS/FeatureServer/5,,,FL,ALVA
Clark Elementary School,"4701 7th Street NW, WASHINGTON, DC, 20011",,,,"Status=CLOSED, evac_cap=168, post_cap=0, pop(g/m/o)=0/0/0, org=NATIONAL CAPITAL AREA",38.94782299,-77.0218571,FEMA ESF6-SS (Shelter Locations layer),https://gis.fema.gov/arcgis/rest/services/NSS/FEMA_NSS/FeatureServer/5,,,DC,WASHINGTON
Mount Vernon School And Recreation Center,"2601 COMMONWEALTH AVE, Alexandria, VA, 22305",,,,"Status=CLOSED, evac_cap=388, post_cap=194, pop(g/m/o)=0/0/0, org=ALEXANDRIA CHAPTER",38.82827611,-77.06071681,FEMA ESF6-SS (Shelter Locations layer),https://gis.fema.gov/arcgis/rest/services/NSS/FEMA_NSS/FeatureServer/5,,,VA,Alexandria
CC Jackson Rec Center,"4910 Park Heights Avenue, BALTIMORE, MD, 21215",,,,"Status=CLOSED, evac_cap=150, post_cap=75, pop(g/m/o)=None/None/None, org=None",39.35610191,-76.68889605,FEMA ESF6-SS (Shelter Locations layer),https://gis.fema.gov/arcgis/rest/services/NSS/FEMA_NSS/FeatureServer/5,,,MD,BALTIMORE
Bishop Maginn,"99 Slingerland Street, ALBANY, NY, 12202",,,,"Status=CLOSED, evac_cap=0, post_cap=0, pop(g/m/o)=0/0/0, org=AMERICAN RED CROSS OF NORTHEASTERN NY",42.64253466,-73.77218393,FEMA ESF6-SS (Shelter Locations layer),https://gis.fema.gov/arcgis/rest/services/NSS/FEMA_NSS/FeatureServer/5,,,NY,ALBANY
First Baptist Church Of Alva,"2790 Joel Blvd, ALVA, FL, 33920",,,,"Status=CLOSED, evac_cap=100, post_cap=0, pop(g/m/o)=None/None/None, org=None",26.700757,-81.599854,FEMA ESF6-SS (Shelter Locations layer),https://gis.fema.gov/arcgis/rest/services/NSS/FEMA_NSS/FeatureServer/5,,,FL,ALVA
Cleveland Elementary School,"300 Bryant Street NW, WASHINGTON, DC, 20001",,,,"Status=CLOSED, evac_cap=124, post_cap=40, pop(g/m/o)=0/0/0, org=NATIONAL CAPITAL AREA",38.92053756,-77.01647016,FEMA ESF6-SS (Shelter Locations layer),https://gis.fema.gov/arcgis/rest/services/NSS/FEMA_NSS/FeatureServer/5,,,DC,WASHINGTON
PATRICK HENRY SCHOOL,"4643 TANEY AVE, Alexandria, VA, 22304",,,,"Status=CLOSED, evac_cap=109, post_cap=54, pop(g/m/o)=0/0/0, org=ALEXANDRIA CHAPTER",38.81600936,-77.11154649,FEMA ESF6-SS (Shelter Locations layer),https://gis.fema.gov/arcgis/rest/services/NSS/FEMA_NSS/FeatureServer/5,,,VA,Alexandria
Coppin State University,"2500 W. North Avenue, BALTIMORE, MD, 21216",,,,"Status=CLOSED, evac_cap=225, post_cap=112, pop(g/m/o)=0/None/None, org=None",39.309696,-76.658576,FEMA ESF6-SS (Shelter Locations layer),https://gis.fema.gov/arcgis/rest/services/NSS/FEMA_NSS/FeatureServer/5,,,MD,BALTIMORE
Calvary Baptist Church,"12 LAUNFAL STREET, ALBANY, NY, 12205",,,,"Status=CLOSED, evac_cap=600, post_cap=300, pop(g/m/o)=0/0/0, org=AMERICAN RED CROSS OF NORTHEASTERN NY",42.69536983,-73.80208639,FEMA ESF6-SS (Shelter Locations layer),https://gis.fema.gov/arcgis/rest/services/NSS/FEMA_NSS/FeatureServer/5,,,NY,ALBANY
Anna Maria Island Community Center,"407 Magnolia Ave., ANNA MARIA, FL, 34217",,,,"Status=CLOSED, evac_cap=820, post_cap=410, pop(g/m/o)=None/None/None, org=None",27.528422,-82.732669,FEMA ESF6-SS (Shelter Locations layer),https://gis.fema.gov/arcgis/rest/services/NSS/FEMA_NSS/FeatureServer/5,,,FL,ANNA MARIA
Columbia Heights Community Center,"1480 Girard St, NW, WASHINGTON, DC, 20009",,,,"Status=CLOSED, evac_cap=279, post_cap=139, pop(g/m/o)=0/0/0, org=NATIONAL CAPITAL AREA",38.92536692,-77.03480734,FEMA ESF6-SS (Shelter Locations layer),https://gis.fema.gov/arcgis/rest/services/NSS/FEMA_NSS/FeatureServer/5,,,DC,WASHINGTON
Samuel W. Tucker Elementary School,"435 FERDINAND DAY DR, Alexandria, VA, 22304",,,,"Status=CLOSED, evac_cap=198, post_cap=99, pop(g/m/o)=0/0/0, org=ALEXANDRIA CHAPTER",38.80507758,-77.12633785,FEMA ESF6-SS (Shelter Locations layer),https://gis.fema.gov/arcgis/rest/services/NSS/FEMA_NSS/FeatureServer/5,,,VA,Alexandria
Dawson Center,"1400 East Federal Street, BALTIMORE, MD, 21213",,,,"Status=CLOSED, evac_cap=75, post_cap=50, pop(g/m/o)=0/None/None, org=American Red Cross Of The Chesapeake Region",39.308774,-76.599388,FEMA ESF6-SS (Shelter Locations layer),https://gis.fema.gov/arcgis/rest/services/NSS/FEMA_NSS/FeatureServer/5,,,MD,BALTIMORE
COLONIE CENTRAL HIGH SCHOOL,"1 RAIDER BOULEVARD, ALBANY, NY, 12205",,,,"Status=CLOSED, evac_cap=1783, post_cap=891, pop(g/m/o)=0/0/0, org=AMERICAN RED CROSS OF NORTHEASTERN NY",42.71006432,-73.80528111,FEMA ESF6-SS (Shelter Locations layer),https://gis.fema.gov/arcgis/rest/services/NSS/FEMA_NSS/FeatureServer/5,,,NY,ALBANY
CHAPMAN ELEMENTARY SCHOOL,"98 12TH ST, Apalachicola, FL, 32320",,,,"Status=CLOSED, evac_cap=450, post_cap=0, pop(g/m/o)=0/0/0, org=CAPITAL AREA CHAPTER (FLORIDA)",29.72268553,-84.99086652,FEMA ESF6-SS (Shelter Locations layer),https://gis.fema.gov/arcgis/rest/services/NSS/FEMA_NSS/FeatureServer/5,,,FL,Apalachicola
Coolidge High School,"6315 5TH ST. NW., WASHINGTON, DC, 20011",,,,"Status=CLOSED, evac_cap=784, post_cap=392, pop(g/m/o)=0/0/0, org=NATIONAL CAPITAL AREA",38.96621413,-77.01987859,FEMA ESF6-SS (Shelter Locations layer),https://gis.fema.gov/arcgis/rest/services/NSS/FEMA_NSS/FeatureServer/5,,,DC,WASHINGTON
TC WILLIAMS HIGH SCHOOL,"3330 KING ST, Alexandria, VA, 22302",,,,"Status=CLOSED, evac_cap=605, post_cap=302, pop(g/m/o)=0/0/0, org=ALEXANDRIA CHAPTER",38.82543426,-77.08534024,FEMA ESF6-SS (Shelter Locations layer),https://gis.fema.gov/arcgis/rest/services/NSS/FEMA_NSS/FeatureServer/5,,,VA,Alexandria
Eastern Regional Recreation Center,"11723 Eastern Avenue, BALTIMORE, MD, 21220",,,,"Status=CLOSED, evac_cap=805, post_cap=402, pop(g/m/o)=None/None/None, org=None",39.34527617,-76.39283861,FEMA ESF6-SS (Shelter Locations layer),https://gis.fema.gov/arcgis/rest/services/NSS/FEMA_NSS/FeatureServer/5,,,MD,BALTIMORE
CONGREGATION BETH EMETH,"100 Academy Rd, ALBANY, NY, 12208",,,,"Status=CLOSED, evac_cap=450, post_cap=225, pop(g/m/o)=0/0/0, org=AMERICAN RED CROSS OF NORTHEASTERN NY",42.64728308,-73.78557483,FEMA ESF6-SS (Shelter Locations layer),https://gis.fema.gov/arcgis/rest/services/NSS/FEMA_NSS/FeatureServer/5,,,NY,ALBANY
MORMON CHURCH,"270 PRADO ST, Apalachicola, FL, 32320",,,,"Status=CLOSED, evac_cap=30, post_cap=0, pop(g/m/o)=0/0/0, org=CAPITAL AREA CHAPTER (FLORIDA)",29.71773926,-84.99796217,FEMA ESF6-SS (Shelter Locations layer),https://gis.fema.gov/arcgis/rest/services/NSS/FEMA_NSS/FeatureServer/5,,,FL,Apalachicola
Dc Armory,"2001 E Capitol St SE, WASHINGTON, DC, 20003",,,,"Status=CLOSED, evac_cap=2500, post_cap=1250, pop(g/m/o)=0/0/0, org=NATIONAL CAPITAL AREA",38.88942546,-76.97597814,FEMA ESF6-SS (Shelter Locations layer),https://gis.fema.gov/arcgis/rest/services/NSS/FEMA_NSS/FeatureServer/5,,,DC,WASHINGTON
William Ramsay Recreation Center,"5650 Sanger Avenue, Alexandria, VA, 22311",,,,"Status=CLOSED, evac_cap=243, post_cap=121, pop(g/m/o)=0/0/0, org=ALEXANDRIA CHAPTER",38.8278984,-77.13055816,FEMA ESF6-SS (Shelter Locations layer),https://gis.fema.gov/arcgis/rest/services/NSS/FEMA_NSS/FeatureServer/5,,,VA,Alexandria
Edgemere Senior Center,"6600 North Point Road, BALTIMORE, MD, 21219",,,,"Status=CLOSED, evac_cap=55, post_cap=27, pop(g/m/o)=None/None/None, org=None",39.24361078,-76.45172391,FEMA ESF6-SS (Shelter Locations layer),https://gis.fema.gov/arcgis/rest/services/NSS/FEMA_NSS/FeatureServer/5,,,MD,BALTIMORE
CONGREGATION BETH EMETH,"100 ACADEMY ROAD, ALBANY, NY, 12208",,,,"Status=CLOSED, evac_cap=200, post_cap=100, pop(g/m/o)=0/0/0, org=AMERICAN RED CROSS OF NORTHEASTERN NY",42.64728308,-73.78557483,FEMA ESF6-SS (Shelter Locations layer),https://gis.fema.gov/arcgis/rest/services/NSS/FEMA_NSS/FeatureServer/5,,,NY,ALBANY
Mount Zion Baptist Church,"98 AVE E, Apalachicola, FL, 32320",,,,"Status=CLOSED, evac_cap=100, post_cap=0, pop(g/m/o)=0/0/0, org=CAPITAL AREA CHAPTER (FLORIDA)",29.72517665,-84.98686453,FEMA ESF6-SS (Shelter Locations layer),https://gis.fema.gov/arcgis/rest/services/NSS/FEMA_NSS/FeatureServer/5,,,FL,Apalachicola
Dc Center For Therapeutic Recreation,"3030 G STREET SE., WASHINGTON, DC, 20019",,,,"Status=CLOSED, evac_cap=350, post_cap=175, pop(g/m/o)=0/0/0, org=NATIONAL CAPITAL AREA",38.88024793,-76.96409365,FEMA ESF6-SS (Shelter Locations layer),https://gis.fema.gov/arcgis/rest/services/NSS/FEMA_NSS/FeatureServer/5,,,DC,WASHINGTON
Charles Houston Recreation Center,"901 Wythe Street, ALEXANDRIA, VA, 22314",,,,"Status=CLOSED, evac_cap=50, post_cap=0, pop(g/m/o)=0/0/0, org=ALEXANDRIA CHAPTER",38.81217825,-77.04775758,FEMA ESF6-SS (Shelter Locations layer),https://gis.fema.gov/arcgis/rest/services/NSS/FEMA_NSS/FeatureServer/5,,,VA,ALEXANDRIA
Edgewood-Lyndhurst Recreation Center,"835 Allendale Street, BALTIMORE, MD, 21229",,,,"Status=CLOSED, evac_cap=345, post_cap=170, pop(g/m/o)=None/None/None, org=None",39.2973813,-76.67849717,FEMA ESF6-SS (Shelter Locations layer),https://gis.fema.gov/arcgis/rest/services/NSS/FEMA_NSS/FeatureServer/5,,,MD,BALTIMORE
Delaware Community School (aka - PS18),"43 Bertha St, ALBANY, NY, 12209",,,,"Status=CLOSED, evac_cap=250, post_cap=125, pop(g/m/o)=0/0/0, org=AMERICAN RED CROSS OF NORTHEASTERN NY",42.64096984,-73.77890186,FEMA ESF6-SS (Shelter Locations layer),https://gis.fema.gov/arcgis/rest/services/NSS/FEMA_NSS/FeatureServer/5,,,NY,ALBANY
Saint Patrick Catholic Church,"27 6TH ST, Apalachicola, FL, 32320",,,,"Status=CLOSED, evac_cap=70, post_cap=0, pop(g/m/o)=0/0/0, org=CAPITAL AREA CHAPTER (FLORIDA)",29.72399854,-84.9838608,FEMA ESF6-SS (Shelter Locations layer),https://gis.fema.gov/arcgis/rest/services/NSS/FEMA_NSS/FeatureServer/5,,,FL,Apalachicola
Deal Junior High School,"3815 FORT DR NW, WASHINGTON, DC, 20016",,,,"Status=CLOSED, evac_cap=0, post_cap=0, pop(g/m/o)=0/0/0, org=NATIONAL CAPITAL AREA",38.9523581,-77.0743207,FEMA ESF6-SS (Shelter Locations layer),https://gis.fema.gov/arcgis/rest/services/NSS/FEMA_NSS/FeatureServer/5,,,DC,WASHINGTON
Edison High School,"5801 FRANCONIA RD, ALEXANDRIA, VA, 22310",,,,"Status=CLOSED, evac_cap=793, post_cap=396, pop(g/m/o)=0/0/0, org=NATIONAL CAPITAL AREA",38.78400249,-77.13324713,FEMA ESF6-SS (Shelter Locations layer),https://gis.fema.gov/arcgis/rest/services/NSS/FEMA_NSS/FeatureServer/5,,,VA,ALEXANDRIA
Edmondson High School,"501 North Athol Avenue Suite 1, BALTIMORE, MD, 21229",,,,"Status=CLOSED, evac_cap=500, post_cap=300, pop(g/m/o)=0/0/0, org=CENTRAL MARYLAND CHAPTER",39.29192158,-76.68924285,FEMA ESF6-SS (Shelter Locations layer),https://gis.fema.gov/arcgis/rest/services/NSS/FEMA_NSS/FeatureServer/5,,,MD,BALTIMORE
Eagle Point Elementary,"1022 WESTERN AVENUE, ALBANY, NY, 12203",,,,"Status=CLOSED, evac_cap=300, post_cap=150, pop(g/m/o)=0/0/0, org=AMERICAN RED CROSS OF NORTHEASTERN NY",42.67388503,-73.81508159,FEMA ESF6-SS (Shelter Locations layer),https://gis.fema.gov/arcgis/rest/services/NSS/FEMA_NSS/FeatureServer/5,,,NY,ALBANY
Apalachicola United Methodist Church,"75 5TH ST, APALACHICOLA, FL, 32320",,,,"Status=CLOSED, evac_cap=60, post_cap=0, pop(g/m/o)=0/0/0, org=CAPITAL AREA CHAPTER (FLORIDA)",29.72668752,-84.98580333,FEMA ESF6-SS (Shelter Locations layer),https://gis.fema.gov/arcgis/rest/services/NSS/FEMA_NSS/FeatureServer/5,,,FL,APALACHICOLA
Deanwood Recreation Center,"1350 49th Street, NE, WASHINGTON, DC, 20019",,,,"Status=CLOSED, evac_cap=50, post_cap=50, pop(g/m/o)=0/0/None, org=NATIONAL CAPITAL AREA",38.89857612,-76.93164611,FEMA ESF6-SS (Shelter Locations layer),https://gis.fema.gov/arcgis/rest/services/NSS/FEMA_NSS/FeatureServer/5,,,DC,WASHINGTON
First Baptist Church,"2932 King Street, ALEXANDRIA, VA, 22303",,,,"Status=CLOSED, evac_cap=71, post_cap=71, pop(g/m/o)=0/0/0, org=ALEXANDRIA CHAPTER",38.81963776,-77.07780089,FEMA ESF6-SS (Shelter Locations layer),https://gis.fema.gov/arcgis/rest/services/NSS/FEMA_NSS/FeatureServer/5,,,VA,ALEXANDRIA
Farring Baybrook Rec Center,"4501 Farring Court, BALTIMORE, MD, 21225",,,,"Status=CLOSED, evac_cap=229, post_cap=117, pop(g/m/o)=None/None/None, org=None",39.22626127,-76.61638913,FEMA ESF6-SS (Shelter Locations layer),https://gis.fema.gov/arcgis/rest/services/NSS/FEMA_NSS/FeatureServer/5,,,MD,BALTIMORE
EMMANUEL BAPTIST CHURCH,"275 STATE STREET, ALBANY, NY, 12210",,,,"Status=CLOSED, evac_cap=100, post_cap=50, pop(g/m/o)=0/0/0, org=AMERICAN RED CROSS OF NORTHEASTERN NY",42.65432477,-73.76159891,FEMA ESF6-SS (Shelter Locations layer),https://gis.fema.gov/arcgis/rest/services/NSS/FEMA_NSS/FeatureServer/5,,,NY,ALBANY
Dorothy York Elementary,"5995 Covington Garden Drive, Apollo Beach, FL, 33572",,,,"Status=CLOSED, evac_cap=None, post_cap=None, pop(g/m/o)=7/None/None, org=None",27.75904469,-82.37237039,FEMA ESF6-SS (Shelter Locations layer),https://gis.fema.gov/arcgis/rest/services/NSS/FEMA_NSS/FeatureServer/5,,,FL,Apollo Beach
Duke Ellington School Of The Arts,"3500 R St NW, WASHINGTON, DC, 20007",,,,"Status=CLOSED, evac_cap=748, post_cap=374, pop(g/m/o)=0/0/0, org=NATIONAL CAPITAL AREA",38.91363976,-77.06931433,FEMA ESF6-SS (Shelter Locations layer),https://gis.fema.gov/arcgis/rest/services/NSS/FEMA_NSS/FeatureServer/5,,,DC,WASHINGTON
FRANCIS C HAMMOND SCHOOL,"4646 SEMINARY RD, ALEXANDRIA, VA, 22304",,,,"Status=CLOSED, evac_cap=374, post_cap=0, pop(g/m/o)=0/0/0, org=ALEXANDRIA CHAPTER",38.82764659,-77.11043133,FEMA ESF6-SS (Shelter Locations layer),https://gis.fema.gov/arcgis/rest/services/NSS/FEMA_NSS/FeatureServer/5,,,VA,ALEXANDRIA
Fleming Recreation And Senior Center,"641 Main Street, BALTIMORE, MD, 21222",,,,"Status=CLOSED, evac_cap=365, post_cap=182, pop(g/m/o)=None/None/None, org=None",39.2350122,-76.5029955,FEMA ESF6-SS (Shelter Locations layer),https://gis.fema.gov/arcgis/rest/services/NSS/FEMA_NSS/FeatureServer/5,,,MD,BALTIMORE
FOREST PARK ELEMENTARY SCHOOL,"100 FOREST DRIVE, ALBANY, NY, 12205",,,,"Status=CLOSED, evac_cap=180, post_cap=90, pop(g/m/o)=0/0/0, org=AMERICAN RED CROSS OF NORTHEASTERN NY",42.72011018,-73.82456944,FEMA ESF6-SS (Shelter Locations layer),https://gis.fema.gov/arcgis/rest/services/NSS/FEMA_NSS/FeatureServer/5,,,NY,ALBANY
Faith Worx Church Of Apollo Beach,"202 Flamingo Ave,, APOLLO BEACH, FL, 33572",,,,"Status=CLOSED, evac_cap=0, post_cap=240, pop(g/m/o)=0/0/0, org=TAMPA BAY CHAPTER",27.76552697,-82.39646635,FEMA ESF6-SS (Shelter Locations layer),https://gis.fema.gov/arcgis/rest/services/NSS/FEMA_NSS/FeatureServer/5,,,FL,APOLLO BEACH
Dunbar High School,"1301 New Jersey Ave NW, WASHINGTON, DC, 20001",,,,"Status=CLOSED, evac_cap=827, post_cap=413, pop(g/m/o)=0/0/0, org=NATIONAL CAPITAL AREA",38.90724558,-77.01543594,FEMA ESF6-SS (Shelter Locations layer),https://gis.fema.gov/arcgis/rest/services/NSS/FEMA_NSS/FeatureServer/5,,,DC,WASHINGTON
Gum Springs Community Center,"8100 Fordson Road, ALEXANDRIA, VA, 22306",,,,"Status=CLOSED, evac_cap=80, post_cap=40, pop(g/m/o)=0/0/0, org=NATIONAL CAPITAL AREA",38.73882055,-77.08330778,FEMA ESF6-SS (Shelter Locations layer),https://gis.fema.gov/arcgis/rest/services/NSS/FEMA_NSS/FeatureServer/5,,,VA,ALEXANDRIA
Friendship Academy,"2500 East Northern Parkway, BALTIMORE, MD, 21214",,,,"Status=CLOSED, evac_cap=300, post_cap=250, pop(g/m/o)=0/0/0, org=CENTRAL MARYLAND CHAPTER",39.36686209,-76.56246542,FEMA ESF6-SS (Shelter Locations layer),https://gis.fema.gov/arcgis/rest/services/NSS/FEMA_NSS/FeatureServer/5,,,MD,BALTIMORE
Giffen Memorial School,"274 S PEARL ST, ALBANY, NY, 12202",,,,"Status=CLOSED, evac_cap=420, post_cap=210, pop(g/m/o)=0/0/0, org=AMERICAN RED CROSS OF NORTHEASTERN NY",42.64186017,-73.75678754,FEMA ESF6-SS (Shelter Locations layer),https://gis.fema.gov/arcgis/rest/services/NSS/FEMA_NSS/FeatureServer/5,,,NY,ALBANY
Apopka High School,"555 Martin St, Apopka, FL, 32712",,,,"Status=CLOSED, evac_cap=None, post_cap=None, pop(g/m/o)=0/None/None, org=Independent",,,FEMA ESF6-SS (Shelter Locations layer),https://gis.fema.gov/arcgis/rest/services/NSS/FEMA_NSS/FeatureServer/5,,,FL,Apopka
Eastern Senior High School,"1700 E Capital St. NE, WASHINGTON, DC, 20003",,,,"Status=CLOSED, evac_cap=394, post_cap=197, pop(g/m/o)=0/0/0, org=NATIONAL CAPITAL AREA",38.88973578,-76.98065017,FEMA ESF6-SS (Shelter Locations layer),https://gis.fema.gov/arcgis/rest/services/NSS/FEMA_NSS/FeatureServer/5,,,DC,WASHINGTON
Lincolnia Senior Center,"4710 N Chambliss St, ALEXANDRIA, VA, 22312",,,,"Status=CLOSED, evac_cap=176, post_cap=0, pop(g/m/o)=0/0/0, org=NATIONAL CAPITAL AREA",38.82181898,-77.142699,FEMA ESF6-SS (Shelter Locations layer),https://gis.fema.gov/arcgis/rest/services/NSS/FEMA_NSS/FeatureServer/5,,,VA,ALEXANDRIA
Fullerton Community Center,"7209 Belair Road, BALTIMORE, MD, 21206",,,,"Status=CLOSED, evac_cap=468, post_cap=234, pop(g/m/o)=None/None/None, org=None",39.35954013,-76.52511613,FEMA ESF6-SS (Shelter Locations layer),https://gis.fema.gov/arcgis/rest/services/NSS/FEMA_NSS/FeatureServer/5,,,MD,BALTIMORE
HACKETT MIDDLE SCHOOL,"45 DELAWARE AVENUE, ALBANY, NY, 12202",,,,"Status=CLOSED, evac_cap=530, post_cap=265, pop(g/m/o)=0/0/0, org=AMERICAN RED CROSS OF NORTHEASTERN NY",42.65017631,-73.76879826,FEMA ESF6-SS (Shelter Locations layer),https://gis.fema.gov/arcgis/rest/services/NSS/FEMA_NSS/FeatureServer/5,,,NY,ALBANY
First United Methodist Church,"201 S Park Ave, Apopka, FL, 32703",,,,"Status=CLOSED, evac_cap=172, post_cap=86, pop(g/m/o)=0/0/0, org=CENTRAL FLORIDA",28.67549697,-81.50942007,FEMA ESF6-SS (Shelter Locations layer),https://gis.fema.gov/arcgis/rest/services/NSS/FEMA_NSS/FeatureServer/5,,,FL,Apopka
Emery Recreation Center,"5801 Georgia Ave NW, WASHINGTON, DC, 20011",,,,"Status=CLOSED, evac_cap=285, post_cap=142, pop(g/m/o)=0/0/0, org=NATIONAL CAPITAL AREA",38.95839002,-77.02818833,FEMA ESF6-SS (Shelter Locations layer),https://gis.fema.gov/arcgis/rest/services/NSS/FEMA_NSS/FeatureServer/5,,,DC,WASHINGTON
Mount Vernon Day Health Care Center At Scgc,"8350 Richmond Highway, ALEXANDRIA, VA, 22309",,,,"Status=CLOSED, evac_cap=80, post_cap=40, pop(g/m/o)=0/0/0, org=NATIONAL CAPITAL AREA",38.73135618,-77.10361447,FEMA ESF6-SS (Shelter Locations layer),https://gis.fema.gov/arcgis/rest/services/NSS/FEMA_NSS/FeatureServer/5,,,VA,ALEXANDRIA
Halethorpe Community Center,"1900 Northeast Avenue, BALTIMORE, MD, 21227",,,,"Status=CLOSED, evac_cap=200, post_cap=100, pop(g/m/o)=None/None/None, org=None",39.2385496,-76.68040913,FEMA ESF6-SS (Shelter Locations layer),https://gis.fema.gov/arcgis/rest/services/NSS/FEMA_NSS/FeatureServer/5,,,MD,BALTIMORE
Harriet Gibbons School,"75 WATERVLIET AVE., ALBANY, NY, 12206",,,,"Status=CLOSED, evac_cap=240, post_cap=120, pop(g/m/o)=0/0/0, org=AMERICAN RED CROSS OF NORTHEASTERN NY",42.67782406,-73.78147393,FEMA ESF6-SS (Shelter Locations layer),https://gis.fema.gov/arcgis/rest/services/NSS/FEMA_NSS/FeatureServer/5,,,NY,ALBANY
Apopka High School,"555 W MARTIN ST, APOPKA, FL, 32712",,,,"Status=CLOSED, evac_cap=1000, post_cap=500, pop(g/m/o)=0/0/0, org=CENTRAL FLORIDA",28.6912441,-81.52111126,FEMA ESF6-SS (Shelter Locations layer),https://gis.fema.gov/arcgis/rest/services/NSS/FEMA_NSS/FeatureServer/5,,,FL,APOPKA
Ferebee Hope Elementary School,"3999 8TH ST SE, WASHINGTON, DC, 20032",,,,"Status=CLOSED, evac_cap=0, post_cap=0, pop(g/m/o)=0/0/0, org=NATIONAL CAPITAL AREA",38.83201729,-76.99459865,FEMA ESF6-SS (Shelter Locations layer),https://gis.fema.gov/arcgis/rest/services/NSS/FEMA_NSS/FeatureServer/5,,,DC,WASHINGTON
Mount Vernon Presbyterian Church,"20001 Sherwood Hall Ln, ALEXANDRIA, VA, 22306",,,,"Status=CLOSED, evac_cap=126, post_cap=0, pop(g/m/o)=0/0/0, org=NATIONAL CAPITAL AREA",38.74234443,-77.08530785,FEMA ESF6-SS (Shelter Locations layer),https://gis.fema.gov/arcgis/rest/services/NSS/FEMA_NSS/FeatureServer/5,,,VA,ALEXANDRIA
Herring Run Recreation Center,"5001 Sinclair Lane, BALTIMORE, MD, 21206",,,,"Status=CLOSED, evac_cap=500, post_cap=300, pop(g/m/o)=0/0/0, org=CENTRAL MARYLAND CHAPTER",39.32185102,-76.5483011,FEMA ESF6-SS (Shelter Locations layer),https://gis.fema.gov/arcgis/rest/services/NSS/FEMA_NSS/FeatureServer/5,,,MD,BALTIMORE
Life for the Nations Church,"477 Krumkill Road, ALBANY, NY, 12203",,,,"Status=CLOSED, evac_cap=250, post_cap=125, pop(g/m/o)=0/None/None, org=None",42.666648,-73.852166,FEMA ESF6-SS (Shelter Locations layer),https://gis.fema.gov/arcgis/rest/services/NSS/FEMA_NSS/FeatureServer/5,,,NY,ALBANY
Apopka Memorial Middle School,"425 N Park Ave, APOPKA, FL, 32712",,,,"Status=CLOSED, evac_cap=503, post_cap=251, pop(g/m/o)=0/0/0, org=CENTRAL FLORIDA",28.68493086,-81.50939309,FEMA ESF6-SS (Shelter Locations layer),https://gis.fema.gov/arcgis/rest/services/NSS/FEMA_NSS/FeatureServer/5,,,FL,APOPKA
Filmore/hardy Closed For Renovations Until 01/08,"1819 35TH ST. NW., WASHINGTON, DC, 20007",,,,"Status=CLOSED, evac_cap=600, post_cap=300, pop(g/m/o)=0/0/0, org=NATIONAL CAPITAL AREA",38.9154474,-77.0693503,FEMA ESF6-SS (Shelter Locations layer),https://gis.fema.gov/arcgis/rest/services/NSS/FEMA_NSS/FeatureServer/5,,,DC,WASHINGTON
Mount Vernon Rec Center,"2017 Belleview Blvd., ALEXANDRIA, VA, 22303",,,,"Status=CLOSED, evac_cap=150, post_cap=75, pop(g/m/o)=0/0/0, org=NATIONAL CAPITAL AREA",38.77492476,-77.06485877,FEMA ESF6-SS (Shelter Locations layer),https://gis.fema.gov/arcgis/rest/services/NSS/FEMA_NSS/FeatureServer/5,,,VA,ALEXANDRIA
Imperial Condominium,"3602 Clarks Ln., BALTIMORE, MD, 21215",,,,"Status=CLOSED, evac_cap=0, post_cap=200, pop(g/m/o)=0/None/None, org=None",39.36198,-76.7008,FEMA ESF6-SS (Shelter Locations layer),https://gis.fema.gov/arcgis/rest/services/NSS/FEMA_NSS/FeatureServer/5,,,MD,BALTIMORE
LISHA KILL MIDDLE SCHOOL,"68 WATERMAN AVE, ALBANY, NY, 12205",,,,"Status=CLOSED, evac_cap=995, post_cap=497, pop(g/m/o)=0/0/0, org=AMERICAN RED CROSS OF NORTHEASTERN NY",42.74975184,-73.86013762,FEMA ESF6-SS (Shelter Locations layer),https://gis.fema.gov/arcgis/rest/services/NSS/FEMA_NSS/FeatureServer/5,,,NY,ALBANY
Apopka Seventh Day Adventist Church,"340 VOTAW RD, APOPKA, FL, 32703",,,,"Status=CLOSED, evac_cap=219, post_cap=0, pop(g/m/o)=0/0/0, org=CENTRAL FLORIDA",28.68396859,-81.50209959,FEMA ESF6-SS (Shelter Locations layer),https://gis.fema.gov/arcgis/rest/services/NSS/FEMA_NSS/FeatureServer/5,,,FL,APOPKA
Francis Junior High School,"2425 N ST. NW, WASHINGTON, DC, 20037",,,,"Status=CLOSED, evac_cap=310, post_cap=0, pop(g/m/o)=0/0/0, org=NATIONAL CAPITAL AREA",38.90725457,-77.05179553,FEMA ESF6-SS (Shelter Locations layer),https://gis.fema.gov/arcgis/rest/services/NSS/FEMA_NSS/FeatureServer/5,,,DC,WASHINGTON
Mt. Vernon Recreation Center,"2017 Belle View Blvd, ALEXANDRIA, VA, 22307",,,,"Status=CLOSED, evac_cap=100, post_cap=50, pop(g/m/o)=0/0/0, org=NATIONAL CAPITAL AREA",38.77478444,-77.0651055,FEMA ESF6-SS (Shelter Locations layer),https://gis.fema.gov/arcgis/rest/services/NSS/FEMA_NSS/FeatureServer/5,,,VA,ALEXANDRIA
Lake Clifton High School,"2801 St. Lo Drive, BALTIMORE, MD, 21213",,,,"Status=CLOSED, evac_cap=500, post_cap=250, pop(g/m/o)=0/None/None, org=None",39.3189267,-76.5869547,FEMA ESF6-SS (Shelter Locations layer),https://gis.fema.gov/arcgis/rest/services/NSS/FEMA_NSS/FeatureServer/5,,,MD,BALTIMORE
Livingston Middle School,"315 NORTHERN BLVD, ALBANY, NY, 12210",,,,"Status=CLOSED, evac_cap=550, post_cap=275, pop(g/m/o)=0/0/0, org=AMERICAN RED CROSS OF NORTHEASTERN NY",42.66925352,-73.75561842,FEMA ESF6-SS (Shelter Locations layer),https://gis.fema.gov/arcgis/rest/services/NSS/FEMA_NSS/FeatureServer/5,,,NY,ALBANY
First Baptist Church of Apopka,"441 S Highland Ave, APOPKA, FL, 32703",,,,"Status=CLOSED, evac_cap=0, post_cap=71, pop(g/m/o)=None/None/None, org=None",28.6724687,-81.50482,FEMA ESF6-SS (Shelter Locations layer),https://gis.fema.gov/arcgis/rest/services/NSS/FEMA_NSS/FeatureServer/5,,,FL,APOPKA
Garnet Patterson Middle School,"2001 10th St. NW, WASHINGTON, DC, 20001",,,,"Status=CLOSED, evac_cap=222, post_cap=111, pop(g/m/o)=0/0/0, org=NATIONAL CAPITAL AREA",38.91759678,-77.02594902,FEMA ESF6-SS (Shelter Locations layer),https://gis.fema.gov/arcgis/rest/services/NSS/FEMA_NSS/FeatureServer/5,,,DC,WASHINGTON
Nannie J. Lee Community Center,"1108 Jefferson Street, ALEXANDRIA, VA, 22314",,,,"Status=CLOSED, evac_cap=387, post_cap=0, pop(g/m/o)=None/None/None, org=ARC in the National Capital Region",38.797,-77.056,FEMA ESF6-SS (Shelter Locations layer),https://gis.fema.gov/arcgis/rest/services/NSS/FEMA_NSS/FeatureServer/5,,,VA,ALEXANDRIA
Lansdowne Senior Center,"424 Lansdowne Center, BALTIMORE, MD, 21227",,,,"Status=CLOSED, evac_cap=90, post_cap=45, pop(g/m/o)=None/None/None, org=None",39.2401259,-76.6572968,FEMA ESF6-SS (Shelter Locations layer),https://gis.fema.gov/arcgis/rest/services/NSS/FEMA_NSS/FeatureServer/5,,,MD,BALTIMORE
Metropolitan New Testament Mission Baptist Church,"105 2nd St, ALBANY, NY, 12210",,,,"Status=CLOSED, evac_cap=0, post_cap=0, pop(g/m/o)=0/0/0, org=AMERICAN RED CROSS OF NORTHEASTERN NY",42.65981064,-73.75578929,FEMA ESF6-SS (Shelter Locations layer),https://gis.fema.gov/arcgis/rest/services/NSS/FEMA_NSS/FeatureServer/5,,,NY,ALBANY
FIRST PRESBYTERIAN CHURCH OF APOPKA,"500 S HIGHLAND AVE, APOPKA, FL, 32703",,,,"Status=CLOSED, evac_cap=77, post_cap=38, pop(g/m/o)=0/0/0, org=CENTRAL FLORIDA",28.67185472,-81.50531916,FEMA ESF6-SS (Shelter Locations layer),https://gis.fema.gov/arcgis/rest/services/NSS/FEMA_NSS/FeatureServer/5,,,FL,APOPKA
Garrison Elementary School,"1200 S ST NW, WASHINGTON, DC, 20009",,,,"Status=CLOSED, evac_cap=178, post_cap=89, pop(g/m/o)=0/0/0, org=NATIONAL CAPITAL AREA",38.91410741,-77.02758578,FEMA ESF6-SS (Shelter Locations layer),https://gis.fema.gov/arcgis/rest/services/NSS/FEMA_NSS/FeatureServer/5,,,DC,WASHINGTON
Purnell School,"51 POTTERSVILLE RD, ALEXANDRIA, VA, 07979",,,,"Status=CLOSED, evac_cap=320, post_cap=160, pop(g/m/o)=0/0/0, org=GREATER SOMERSET COUNTY",40.71457126,-74.71847157,FEMA ESF6-SS (Shelter Locations layer),https://gis.fema.gov/arcgis/rest/services/NSS/FEMA_NSS/FeatureServer/5,,,VA,ALEXANDRIA
Loch Raven Recreation Center,"1801 Glen Keith Boulevard, BALTIMORE, MD, 21234",,,,"Status=CLOSED, evac_cap=310, post_cap=155, pop(g/m/o)=None/None/None, org=None",39.38641038,-76.57107664,FEMA ESF6-SS (Shelter Locations layer),https://gis.fema.gov/arcgis/rest/services/NSS/FEMA_NSS/FeatureServer/5,,,MD,BALTIMORE
MONTESSORI MAGNET SCHOOL,"65 Tremont St., ALBANY, NY, 12202",,,,"Status=CLOSED, evac_cap=732, post_cap=366, pop(g/m/o)=0/0/0, org=AMERICAN RED CROSS OF NORTHEASTERN NY",42.64528659,-73.76159891,FEMA ESF6-SS (Shelter Locations layer),https://gis.fema.gov/arcgis/rest/services/NSS/FEMA_NSS/FeatureServer/5,,,NY,ALBANY
PIEDMONT LAKES MIDDLE SCHOOL,"2601 LAKEVILLE RD, APOPKA, FL, 32703",,,,"Status=CLOSED, evac_cap=652, post_cap=326, pop(g/m/o)=0/0/0, org=CENTRAL FLORIDA",28.63796827,-81.48038096,FEMA ESF6-SS (Shelter Locations layer),https://gis.fema.gov/arcgis/rest/services/NSS/FEMA_NSS/FeatureServer/5,,,FL,APOPKA
Guy Mason Recreation Center,"3600 Calvert St NW, WASHINGTON, DC, 20007",,,,"Status=CLOSED, evac_cap=62, post_cap=0, pop(g/m/o)=0/0/0, org=NATIONAL CAPITAL AREA",38.92254305,-77.07086116,FEMA ESF6-SS (Shelter Locations layer),https://gis.fema.gov/arcgis/rest/services/NSS/FEMA_NSS/FeatureServer/5,,,DC,WASHINGTON
Robert East Lee Recreation Center,"6601 N Telegraph Rd, ALEXANDRIA, VA, 22310",,,,"Status=CLOSED, evac_cap=1017, post_cap=508, pop(g/m/o)=0/0/None, org=NATIONAL CAPITAL AREA",38.77452363,-77.11134864,FEMA ESF6-SS (Shelter Locations layer),https://gis.fema.gov/arcgis/rest/services/NSS/FEMA_NSS/FeatureServer/5,,,VA,ALEXANDRIA
Morgan State University,"1700 East Cold Spring Lane, BALTIMORE, MD, 21251",,,,"Status=CLOSED, evac_cap=208, post_cap=104, pop(g/m/o)=None/None/None, org=None",39.343747,-76.5866012,FEMA ESF6-SS (Shelter Locations layer),https://gis.fema.gov/arcgis/rest/services/NSS/FEMA_NSS/FeatureServer/5,,,MD,BALTIMORE
Myers Middle School,"100 Eibel Court, ALBANY, NY, 12209",,,,"Status=CLOSED, evac_cap=425, post_cap=212, pop(g/m/o)=0/None/None, org=None",42.6442755,-73.7930282,FEMA ESF6-SS (Shelter Locations layer),https://gis.fema.gov/arcgis/rest/services/NSS/FEMA_NSS/FeatureServer/5,,,NY,ALBANY
Wolf Lake Middle School,"1725 West Ponkan Rd, APOPKA, FL, 32712",,,,"Status=CLOSED, evac_cap=555, post_cap=277, pop(g/m/o)=0/0/0, org=CENTRAL FLORIDA",28.72813442,-81.54055501,FEMA ESF6-SS (Shelter Locations layer),https://gis.fema.gov/arcgis/rest/services/NSS/FEMA_NSS/FeatureServer/5,,,FL,APOPKA
Hamilton Center,"1401 Brentwood Pkwy NE, WASHINGTON, DC, 20002",,,,"Status=CLOSED, evac_cap=368, post_cap=184, pop(g/m/o)=0/0/0, org=NATIONAL CAPITAL AREA",38.90969174,-76.99580374,FEMA ESF6-SS (Shelter Locations layer),https://gis.fema.gov/arcgis/rest/services/NSS/FEMA_NSS/FeatureServer/5,,,DC,WASHINGTON
Walt Whitman Middle School,"2500 PARKERS LN, ALEXANDRIA, VA, 22306",,,,"Status=CLOSED, evac_cap=416, post_cap=208, pop(g/m/o)=0/0/0, org=NATIONAL CAPITAL AREA",38.7392792,-77.07417067,FEMA ESF6-SS (Shelter Locations layer),https://gis.fema.gov/arcgis/rest/services/NSS/FEMA_NSS/FeatureServer/5,,,VA,ALEXANDRIA
Overlea Senior Center,"4314 Fullerton Avenue, BALTIMORE, MD, 21236",,,,"Status=CLOSED, evac_cap=108, post_cap=54, pop(g/m/o)=None/None/None, org=None",39.3601472,-76.5200095,FEMA ESF6-SS (Shelter Locations layer),https://gis.fema.gov/arcgis/rest/services/NSS/FEMA_NSS/FeatureServer/5,,,MD,BALTIMORE
New Scotland Elementary,"369 NEW SCOTLAND AVENUE, ALBANY, NY, 12208",,,,"Status=CLOSED, evac_cap=250, post_cap=125, pop(g/m/o)=0/0/0, org=AMERICAN RED CROSS OF NORTHEASTERN NY",42.65365028,-73.79240069,FEMA ESF6-SS (Shelter Locations layer),https://gis.fema.gov/arcgis/rest/services/NSS/FEMA_NSS/FeatureServer/5,,,NY,ALBANY
Arcadia DeSoto Middle School,"2250 NE Roan St, Arcadia, FL, 34266",,,,"Status=CLOSED, evac_cap=None, post_cap=None, pop(g/m/o)=0/None/None, org=ARC Partner",,,FEMA ESF6-SS (Shelter Locations layer),https://gis.fema.gov/arcgis/rest/services/NSS/FEMA_NSS/FeatureServer/5,,,FL,Arcadia
Harriet Tubman Elementary School,"3101 13th St NW, WASHINGTON, DC, 20010",,,,"Status=CLOSED, evac_cap=170, post_cap=0, pop(g/m/o)=0/0/0, org=NATIONAL CAPITAL AREA",38.92864045,-77.02967221,FEMA ESF6-SS (Shelter Locations layer),https://gis.fema.gov/arcgis/rest/services/NSS/FEMA_NSS/FeatureServer/5,,,DC,WASHINGTON
Arbor Baptist Church,"13701 Butlers Rd, AMELIA, VA, 23002",,,,"Status=CLOSED, evac_cap=308, post_cap=154, pop(g/m/o)=None/None/None, org=GREATER RICHMOND CHAPTER",37.36082538,-77.92187161,FEMA ESF6-SS (Shelter Locations layer),https://gis.fema.gov/arcgis/rest/services/NSS/FEMA_NSS/FeatureServer/5,,,VA,AMELIA
Patterson High School,"100 Kane Street, BALTIMORE, MD, 21224",,,,"Status=CLOSED, evac_cap=500, post_cap=300, pop(g/m/o)=0/0/0, org=CENTRAL MARYLAND CHAPTER",39.29444868,-76.53402886,FEMA ESF6-SS (Shelter Locations layer),https://gis.fema.gov/arcgis/rest/services/NSS/FEMA_NSS/FeatureServer/5,,,MD,BALTIMORE
North Albany Academy,"570 N PEARL ST, ALBANY, NY, 12204",,,,"Status=CLOSED, evac_cap=900, post_cap=450, pop(g/m/o)=0/0/0, org=AMERICAN RED CROSS OF NORTHEASTERN NY",42.67259,-73.73997021,FEMA ESF6-SS (Shelter Locations layer),https://gis.fema.gov/arcgis/rest/services/NSS/FEMA_NSS/FeatureServer/5,,,NY,ALBANY
Desoto County Special Needs Shelter (Special Needs),"2150 NE Turner Ave, Arcadia, FL, 34266",,,,"Status=CLOSED, evac_cap=None, post_cap=None, pop(g/m/o)=0/None/None, org=Independent",,,FEMA ESF6-SS (Shelter Locations layer),https://gis.fema.gov/arcgis/rest/services/NSS/FEMA_NSS/FeatureServer/5,,,FL,Arcadia
H. D. Woodson Senior High School,"5500 EADS ST NE, WASHINGTON, DC, 20019",,,,"Status=CLOSED, evac_cap=778, post_cap=0, pop(g/m/o)=0/0/0, org=NATIONAL CAPITAL AREA",38.8958062,-76.92182551,FEMA ESF6-SS (Shelter Locations layer),https://gis.fema.gov/arcgis/rest/services/NSS/FEMA_NSS/FeatureServer/5,,,DC,WASHINGTON
Mattaox Presbyterian Church,"14600 Chula Rd., AMELIA, VA, 23002",,,,"Status=CLOSED, evac_cap=40, post_cap=20, pop(g/m/o)=None/None/None, org=None",37.428904,-77.891662,FEMA ESF6-SS (Shelter Locations layer),https://gis.fema.gov/arcgis/rest/services/NSS/FEMA_NSS/FeatureServer/5,,,VA,AMELIA
Roosevelt Rec Center,"1121 West 36th Street, BALTIMORE, MD, 21211",,,,"Status=CLOSED, evac_cap=160, post_cap=80, pop(g/m/o)=None/None/None, org=None",39.33098335,-76.63403329,FEMA ESF6-SS (Shelter Locations layer),https://gis.fema.gov/arcgis/rest/services/NSS/FEMA_NSS/FeatureServer/5,,,MD,BALTIMORE
Philip Schuyler Elementary School,"141 WESTERN AVE, ALBANY, NY, 12203",,,,"Status=CLOSED, evac_cap=300, post_cap=150, pop(g/m/o)=0/0/0, org=AMERICAN RED CROSS OF NORTHEASTERN NY",42.66088982,-73.77425237,FEMA ESF6-SS (Shelter Locations layer),https://gis.fema.gov/arcgis/rest/services/NSS/FEMA_NSS/FeatureServer/5,,,NY,ALBANY
DeSoto Middle School,"420 E. Gibson Street, Arcadia, FL, 34266",,,,"Status=CLOSED, evac_cap=None, post_cap=None, pop(g/m/o)=0/None/None, org=Independent",,,FEMA ESF6-SS (Shelter Locations layer),https://gis.fema.gov/arcgis/rest/services/NSS/FEMA_NSS/FeatureServer/5,,,FL,Arcadia
Hillcrest Recreation Center,"3100 Denver St SE, WASHINGTON, DC, 20020",,,,"Status=CLOSED, evac_cap=454, post_cap=227, pop(g/m/o)=0/0/0, org=NATIONAL CAPITAL AREA",38.85838541,-76.9619083,FEMA ESF6-SS (Shelter Locations layer),https://gis.fema.gov/arcgis/rest/services/NSS/FEMA_NSS/FeatureServer/5,,,DC,WASHINGTON
Amelia County Fire Station 1,"8950 Otterburn Road, Amelia Courthouse , VA, 23002",,,,"Status=CLOSED, evac_cap=None, post_cap=None, pop(g/m/o)=0/None/None, org=None",,,FEMA ESF6-SS (Shelter Locations layer),https://gis.fema.gov/arcgis/rest/services/NSS/FEMA_NSS/FeatureServer/5,,,VA,Amelia Courthouse 
Seven Oaks Senior Center,"9210 Seven Courts Drive, BALTIMORE, MD, 21236",,,,"Status=CLOSED, evac_cap=121, post_cap=60, pop(g/m/o)=None/None/None, org=None",39.4073414,-76.4853685,FEMA ESF6-SS (Shelter Locations layer),https://gis.fema.gov/arcgis/rest/services/NSS/FEMA_NSS/FeatureServer/5,,,MD,BALTIMORE
PHILLIP SCHUYLER ACHIEVEMENT ACADEMY,"667 CLINTON AVENUE, ALBANY, NY, 12206",,,,"Status=CLOSED, evac_cap=375, post_cap=187, pop(g/m/o)=0/0/0, org=AMERICAN RED CROSS OF NORTHEASTERN NY",42.66761675,-73.77307426,FEMA ESF6-SS (Shelter Locations layer),https://gis.fema.gov/arcgis/rest/services/NSS/FEMA_NSS/FeatureServer/5,,,NY,ALBANY
South Florida State College,"2251 Turner Avenue, Arcadia, FL, 34266",,,,"Status=CLOSED, evac_cap=None, post_cap=None, pop(g/m/o)=0/None/None, org=None",27.227227,-81.843583,FEMA ESF6-SS (Shelter Locations layer),https://gis.fema.gov/arcgis/rest/services/NSS/FEMA_NSS/FeatureServer/5,,,FL,Arcadia
Hine Junior High School,"335 8th St SE, WASHINGTON, DC, 20003",,,,"Status=CLOSED, evac_cap=590, post_cap=0, pop(g/m/o)=0/0/0, org=NATIONAL CAPITAL AREA",38.88544601,-76.99494039,FEMA ESF6-SS (Shelter Locations layer),https://gis.fema.gov/arcgis/rest/services/NSS/FEMA_NSS/FeatureServer/5,,,DC,WASHINGTON
Hope Chapel,"9611 WAYSIDE AVE, AMELIA COURT HOUSE, VA, 23002",,,,"Status=CLOSED, evac_cap=242, post_cap=121, pop(g/m/o)=0/0/0, org=GREATER RICHMOND CHAPTER",37.35019539,-77.97208975,FEMA ESF6-SS (Shelter Locations layer),https://gis.fema.gov/arcgis/rest/services/NSS/FEMA_NSS/FeatureServer/5,,,VA,AMELIA COURT HOUSE
Southeast Regional Recreation Center,"4021 North Point Boulevard, BALTIMORE, MD, 21222",,,,"Status=CLOSED, evac_cap=694, post_cap=347, pop(g/m/o)=None/None/None, org=None",39.26767,-76.469398,FEMA ESF6-SS (Shelter Locations layer),https://gis.fema.gov/arcgis/rest/services/NSS/FEMA_NSS/FeatureServer/5,,,MD,BALTIMORE
Pine Hills Elementary,"41 N ALLEN ST, ALBANY, NY, 12203",,,,"Status=CLOSED, evac_cap=250, post_cap=125, pop(g/m/o)=0/0/0, org=AMERICAN RED CROSS OF NORTHEASTERN NY",42.66764373,-73.79080889,FEMA ESF6-SS (Shelter Locations layer),https://gis.fema.gov/arcgis/rest/services/NSS/FEMA_NSS/FeatureServer/5,,,NY,ALBANY
Turner Agricultural Civic Center,"2260 NE Roan St., Arcadia, FL, 34266",,,,"Status=CLOSED, evac_cap=None, post_cap=None, pop(g/m/o)=0/None/None, org=None",27.2237443,-81.8381899,FEMA ESF6-SS (Shelter Locations layer),https://gis.fema.gov/arcgis/rest/services/NSS/FEMA_NSS/FeatureServer/5,,,FL,Arcadia
Jefferson Junior High School,"801 7th ST SW, WASHINGTON, DC, 20024",,,,"Status=CLOSED, evac_cap=258, post_cap=129, pop(g/m/o)=0/0/0, org=NATIONAL CAPITAL AREA",38.88022095,-77.02187509,FEMA ESF6-SS (Shelter Locations layer),https://gis.fema.gov/arcgis/rest/services/NSS/FEMA_NSS/FeatureServer/5,,,DC,WASHINGTON
Amherst County High School,"139 Lancer Lane, AMHERST, VA, 24521",,,,"Status=CLOSED, evac_cap=1076, post_cap=538, pop(g/m/o)=0/None/None, org=HISTORIC VIRGINIA CHAPTER",37.56888353,-79.05924418,FEMA ESF6-SS (Shelter Locations layer),https://gis.fema.gov/arcgis/rest/services/NSS/FEMA_NSS/FeatureServer/5,,,VA,AMHERST
Stillmeadow Evangelical Free Church,"5110 Frederick Avenue, BALTIMORE, MD, 21229",,,,"Status=CLOSED, evac_cap=113, post_cap=56, pop(g/m/o)=0/None/None, org=None",39.2815173,-76.6997254,FEMA ESF6-SS (Shelter Locations layer),https://gis.fema.gov/arcgis/rest/services/NSS/FEMA_NSS/FeatureServer/5,,,MD,BALTIMORE
Public School 21,"666 Clinton Ave, ALBANY, NY, 12205",,,,"Status=CLOSED, evac_cap=200, post_cap=100, pop(g/m/o)=0/0/0, org=AMERICAN RED CROSS OF NORTHEASTERN NY",42.66813836,-73.77396459,FEMA ESF6-SS (Shelter Locations layer),https://gis.fema.gov/arcgis/rest/services/NSS/FEMA_NSS/FeatureServer/5,,,NY,ALBANY
Desoto High School,"1710 E GIBSON ST, ARCADIA, FL, 34266",,,,"Status=CLOSED, evac_cap=312, post_cap=156, pop(g/m/o)=0/0/0, org=SOUTHWEST FLORIDA",27.22373941,-81.84188144,FEMA ESF6-SS (Shelter Locations layer),https://gis.fema.gov/arcgis/rest/services/NSS/FEMA_NSS/FeatureServer/5,,,FL,ARCADIA
Joseph Cole Recreation Center,"1200 MORSE ROAD NE., WASHINGTON, DC, 20002",,,,"Status=CLOSED, evac_cap=2, post_cap=0, pop(g/m/o)=0/0/0, org=NATIONAL CAPITAL AREA",38.90360333,-76.98943654,FEMA ESF6-SS (Shelter Locations layer),https://gis.fema.gov/arcgis/rest/services/NSS/FEMA_NSS/FeatureServer/5,,,DC,WASHINGTON
Audrey Moore Recreation Center,"8100 Braddock Road, ANNANDALE, VA, 22003",,,,"Status=CLOSED, evac_cap=500, post_cap=250, pop(g/m/o)=0/0/0, org=NATIONAL CAPITAL AREA",38.8113149,-77.22473516,FEMA ESF6-SS (Shelter Locations layer),https://gis.fema.gov/arcgis/rest/services/NSS/FEMA_NSS/FeatureServer/5,,,VA,ANNANDALE
University of Maryland Baltimore Co. Retriever Coliseum,"1000 Hilltop Circle, BALTIMORE, MD, 21250",,,,"Status=CLOSED, evac_cap=1120, post_cap=560, pop(g/m/o)=0/None/None, org=American Red Cross Of The Chesapeake Region",39.2533149,-76.71010317,FEMA ESF6-SS (Shelter Locations layer),https://gis.fema.gov/arcgis/rest/services/NSS/FEMA_NSS/FeatureServer/5,,,MD,BALTIMORE
PUBLIC SCHOOL 26 (Montessori School),"65 Tremont St, ALBANY, NY, 12205",,,,"Status=CLOSED, evac_cap=930, post_cap=465, pop(g/m/o)=0/0/0, org=AMERICAN RED CROSS OF NORTHEASTERN NY",42.68291422,-73.80080935,FEMA ESF6-SS (Shelter Locations layer),https://gis.fema.gov/arcgis/rest/services/NSS/FEMA_NSS/FeatureServer/5,,,NY,ALBANY
DESOTO MIDDLE SCHOOL,"420 E GIBSON ST, ARCADIA, FL, 34266",,,,"Status=CLOSED, evac_cap=1600, post_cap=800, pop(g/m/o)=0/0/0, org=SOUTHWEST FLORIDA",27.22372142,-81.85163908,FEMA ESF6-SS (Shelter Locations layer),https://gis.fema.gov/arcgis/rest/services/NSS/FEMA_NSS/FeatureServer/5,,,FL,ARCADIA
J.o. Wilson Elementary School,"660 K St. NE, WASHINGTON, DC, 20002",,,,"Status=CLOSED, evac_cap=197, post_cap=98, pop(g/m/o)=0/0/0, org=NATIONAL CAPITAL AREA",38.90249716,-76.99704481,FEMA ESF6-SS (Shelter Locations layer),https://gis.fema.gov/arcgis/rest/services/NSS/FEMA_NSS/FeatureServer/5,,,DC,WASHINGTON
Appalachia Community Center,"205 Lee Street, APPALACHIA, VA, 24216",,,,"Status=CLOSED, evac_cap=275, post_cap=137, pop(g/m/o)=0/None/None, org=None",36.9088034,-82.7708658,FEMA ESF6-SS (Shelter Locations layer),https://gis.fema.gov/arcgis/rest/services/NSS/FEMA_NSS/FeatureServer/5,,,VA,APPALACHIA
Victory Villa Community Center,"404 Compass Road E, BALTIMORE, MD, 21220",,,,"Status=CLOSED, evac_cap=276, post_cap=138, pop(g/m/o)=None/None/None, org=None",39.33782158,-76.45604421,FEMA ESF6-SS (Shelter Locations layer),https://gis.fema.gov/arcgis/rest/services/NSS/FEMA_NSS/FeatureServer/5,,,MD,BALTIMORE
Roessleville School,"100 CALIFORNIA AVE, ALBANY, NY, 12205",,,,"Status=CLOSED, evac_cap=194, post_cap=97, pop(g/m/o)=0/0/0, org=AMERICAN RED CROSS OF NORTHEASTERN NY",42.70325689,-73.81418227,FEMA ESF6-SS (Shelter Locations layer),https://gis.fema.gov/arcgis/rest/services/NSS/FEMA_NSS/FeatureServer/5,,,NY,ALBANY
Desoto Village,"4810 S.R. 72 NW, ARCADIA, FL, 34266",,,,"Status=CLOSED, evac_cap=115, post_cap=57, pop(g/m/o)=0/0/0, org=SOUTHWEST FLORIDA",27.21451237,-81.90762188,FEMA ESF6-SS (Shelter Locations layer),https://gis.fema.gov/arcgis/rest/services/NSS/FEMA_NSS/FeatureServer/5,,,FL,ARCADIA
Kelly Miller Middle School,"301 49th St NE, WASHINGTON, DC, 20019",,,,"Status=CLOSED, evac_cap=418, post_cap=209, pop(g/m/o)=0/0/0, org=NATIONAL CAPITAL AREA",38.89360287,-76.93288717,FEMA ESF6-SS (Shelter Locations layer),https://gis.fema.gov/arcgis/rest/services/NSS/FEMA_NSS/FeatureServer/5,,,DC,WASHINGTON
Appomattox County Community Center,"220 Community Lane, APPOMATTOX, VA, 24522",,,,"Status=CLOSED, evac_cap=50, post_cap=25, pop(g/m/o)=0/None/None, org=None",37.350367,-78.810692,FEMA ESF6-SS (Shelter Locations layer),https://gis.fema.gov/arcgis/rest/services/NSS/FEMA_NSS/FeatureServer/5,,,VA,APPOMATTOX
Victory Villa Senior Center,"403 Compass Road E, BALTIMORE, MD, 21220",,,,"Status=CLOSED, evac_cap=125, post_cap=62, pop(g/m/o)=None/None/None, org=None",39.3410527,-76.45519968,FEMA ESF6-SS (Shelter Locations layer),https://gis.fema.gov/arcgis/rest/services/NSS/FEMA_NSS/FeatureServer/5,,,MD,BALTIMORE
SADDLEWOOD ELEMENTARY SCHOOL,"100 LORALEE DRIVE, ALBANY, NY, 12205",,,,"Status=CLOSED, evac_cap=180, post_cap=90, pop(g/m/o)=0/0/0, org=AMERICAN RED CROSS OF NORTHEASTERN NY",42.73272767,-73.83933631,FEMA ESF6-SS (Shelter Locations layer),https://gis.fema.gov/arcgis/rest/services/NSS/FEMA_NSS/FeatureServer/5,,,NY,ALBANY
INACTIVE Calvery Baptist Church,"1509 E. Oak St., ARCADIA, FL, 34266",,,,"Status=CLOSED, evac_cap=500, post_cap=250, pop(g/m/o)=0/0/0, org=SOUTHWEST FLORIDA",27.20951213,-81.84278975,FEMA ESF6-SS (Shelter Locations layer),https://gis.fema.gov/arcgis/rest/services/NSS/FEMA_NSS/FeatureServer/5,,,FL,ARCADIA
Kenilworth Parkside Recreation Center,"4300 ANACOSTIA AVE NE, WASHINGTON, DC, 20019",,,,"Status=CLOSED, evac_cap=288, post_cap=144, pop(g/m/o)=0/0/0, org=NATIONAL CAPITAL AREA",38.9118591,-76.9408102,FEMA ESF6-SS (Shelter Locations layer),https://gis.fema.gov/arcgis/rest/services/NSS/FEMA_NSS/FeatureServer/5,,,DC,WASHINGTON
Appomattox County High School,"198 Evergreen Ave, APPOMATTOX, VA, 24522",,,,"Status=CLOSED, evac_cap=350, post_cap=175, pop(g/m/o)=0/None/None, org=HISTORIC VIRGINIA CHAPTER",37.3452238,-78.8260996,FEMA ESF6-SS (Shelter Locations layer),https://gis.fema.gov/arcgis/rest/services/NSS/FEMA_NSS/FeatureServer/5,,,VA,APPOMATTOX
War Memorial Building,"101 North Gay Street, BALTIMORE, MD, 21202",,,,"Status=CLOSED, evac_cap=200, post_cap=100, pop(g/m/o)=90/None/None, org=American Red Cross Of The Chesapeake Region",39.29063537,-76.60892186,FEMA ESF6-SS (Shelter Locations layer),https://gis.fema.gov/arcgis/rest/services/NSS/FEMA_NSS/FeatureServer/5,,,MD,BALTIMORE
Saint John's Center,"157 Franklin St, ALBANY, NY, 12202",,,,"Status=CLOSED, evac_cap=0, post_cap=0, pop(g/m/o)=0/0/0, org=AMERICAN RED CROSS OF NORTHEASTERN NY",42.63886543,-73.75733612,FEMA ESF6-SS (Shelter Locations layer),https://gis.fema.gov/arcgis/rest/services/NSS/FEMA_NSS/FeatureServer/5,,,NY,ALBANY
INACTIVE Faith Community Worship Center,"201 NORTH 11TH AVENUE, ARCADIA, FL, 34266",,,,"Status=CLOSED, evac_cap=150, post_cap=75, pop(g/m/o)=0/0/0, org=SOUTHWEST FLORIDA",27.21283063,-81.8472324,FEMA ESF6-SS (Shelter Locations layer),https://gis.fema.gov/arcgis/rest/services/NSS/FEMA_NSS/FeatureServer/5,,,FL,ARCADIA
Kennedy Recreation Center,"1401 7th St., NW, WASHINGTON, DC, 20001",,,,"Status=CLOSED, evac_cap=200, post_cap=160, pop(g/m/o)=0/0/None, org=NATIONAL CAPITAL AREA",38.90866651,-77.02192006,FEMA ESF6-SS (Shelter Locations layer),https://gis.fema.gov/arcgis/rest/services/NSS/FEMA_NSS/FeatureServer/5,,,DC,WASHINGTON
Appomattox Primary School,"185 Learning Lane, APPOMATTOX, VA, 24522",,,,"Status=CLOSED, evac_cap=74, post_cap=37, pop(g/m/o)=None/None/None, org=None",37.359003,-78.833542,FEMA ESF6-SS (Shelter Locations layer),https://gis.fema.gov/arcgis/rest/services/NSS/FEMA_NSS/FeatureServer/5,,,VA,APPOMATTOX
Barton Hose Company,"19120 South Eutah, BARTON, MD, 21521",,,,"Status=CLOSED, evac_cap=70, post_cap=35, pop(g/m/o)=0/0/0, org=WESTERN POTOMAC CHAPTER",39.55801794,-79.07628547,FEMA ESF6-SS (Shelter Locations layer),https://gis.fema.gov/arcgis/rest/services/NSS/FEMA_NSS/FeatureServer/5,,,MD,BARTON
SAND CREEK MIDDLE SCHOOL,"329 SAND CREEK RD, ALBANY, NY, 12205",,,,"Status=CLOSED, evac_cap=741, post_cap=370, pop(g/m/o)=0/0/0, org=AMERICAN RED CROSS OF NORTHEASTERN NY",42.70599082,-73.80128599,FEMA ESF6-SS (Shelter Locations layer),https://gis.fema.gov/arcgis/rest/services/NSS/FEMA_NSS/FeatureServer/5,,,NY,ALBANY
INACTIVE First Baptist Of Fort Ogden,"9500  Hull Ave., ARCADIA, FL, 34266",,,,"Status=CLOSED, evac_cap=100, post_cap=50, pop(g/m/o)=0/0/0, org=SOUTHWEST FLORIDA",27.08637994,-81.95814024,FEMA ESF6-SS (Shelter Locations layer),https://gis.fema.gov/arcgis/rest/services/NSS/FEMA_NSS/FeatureServer/5,,,FL,ARCADIA
Key Elementary School,"5001 Dana Pl NW, WASHINGTON, DC, 20016",,,,"Status=CLOSED, evac_cap=177, post_cap=0, pop(g/m/o)=0/0/0, org=NATIONAL CAPITAL AREA",38.92600544,-77.10028698,FEMA ESF6-SS (Shelter Locations layer),https://gis.fema.gov/arcgis/rest/services/NSS/FEMA_NSS/FeatureServer/5,,,DC,WASHINGTON
Blue Ridge Rescue Squad,"1961 Willis Gap Road, ARARAT, VA, 24053",,,,"Status=CLOSED, evac_cap=50, post_cap=25, pop(g/m/o)=0/None/None, org=None",36.5808181,-80.5839213,FEMA ESF6-SS (Shelter Locations layer),https://gis.fema.gov/arcgis/rest/services/NSS/FEMA_NSS/FeatureServer/5,,,VA,ARARAT
C. Milton Wright High School,"1301 North Fountain Green Road, BEL AIR, MD, 21015",,,,"Status=CLOSED, evac_cap=500, post_cap=300, pop(g/m/o)=0/0/0, org=CENTRAL MARYLAND CHAPTER",39.56508166,-76.33290448,FEMA ESF6-SS (Shelter Locations layer),https://gis.fema.gov/arcgis/rest/services/NSS/FEMA_NSS/FeatureServer/5,,,MD,BEL AIR
SHAKER ROAD ELEMENTARY SCHOOL,"512 ALBANY SHAKER RD, ALBANY, NY, 12205",,,,"Status=CLOSED, evac_cap=180, post_cap=90, pop(g/m/o)=0/0/0, org=AMERICAN RED CROSS OF NORTHEASTERN NY",42.71065831,-73.7807095,FEMA ESF6-SS (Shelter Locations layer),https://gis.fema.gov/arcgis/rest/services/NSS/FEMA_NSS/FeatureServer/5,,,NY,ALBANY
INACTIVE First Presbyterian Church,"209 W HICKORY ST, ARCADIA, FL, 34266",,,,"Status=CLOSED, evac_cap=110, post_cap=55, pop(g/m/o)=0/0/0, org=SOUTHWEST FLORIDA",27.21728228,-81.8622331,FEMA ESF6-SS (Shelter Locations layer),https://gis.fema.gov/arcgis/rest/services/NSS/FEMA_NSS/FeatureServer/5,,,FL,ARCADIA
King Greenleaf Recreation Center,"201 N St. SW, WASHINGTON, DC, 20024",,,,"Status=CLOSED, evac_cap=378, post_cap=189, pop(g/m/o)=0/0/0, org=NATIONAL CAPITAL AREA",38.87470811,-77.01245019,FEMA ESF6-SS (Shelter Locations layer),https://gis.fema.gov/arcgis/rest/services/NSS/FEMA_NSS/FeatureServer/5,,,DC,WASHINGTON
Arlington Forest United Methodist Church,"4701 Arlington Blvd., ARLINGTON, VA, 22203",,,,"Status=CLOSED, evac_cap=100, post_cap=0, pop(g/m/o)=0/0/0, org=ARLINGTON COUNTY",38.8678283,-77.11287749,FEMA ESF6-SS (Shelter Locations layer),https://gis.fema.gov/arcgis/rest/services/NSS/FEMA_NSS/FeatureServer/5,,,VA,ARLINGTON
Harford Technical High School,"102 South Hickory Avenue, BEL AIR, MD, 21014",,,,"Status=CLOSED, evac_cap=400, post_cap=200, pop(g/m/o)=None/None/None, org=American Red Cross Of The Chesapeake Region",39.536142,-76.347131,FEMA ESF6-SS (Shelter Locations layer),https://gis.fema.gov/arcgis/rest/services/NSS/FEMA_NSS/FeatureServer/5,,,MD,BEL AIR
SHERIDAN PREPARATORY ACADEMY,"400 SHERIDAN AVE, ALBANY, NY, 12206",,,,"Status=CLOSED, evac_cap=375, post_cap=187, pop(g/m/o)=0/0/0, org=AMERICAN RED CROSS OF NORTHEASTERN NY",42.66178015,-73.7661225,FEMA ESF6-SS (Shelter Locations layer),https://gis.fema.gov/arcgis/rest/services/NSS/FEMA_NSS/FeatureServer/5,,,NY,ALBANY
INACTIVE Igesia Cristiana Pacto De F Inc,"1226 S.W. HILLSBOROUGH AVE, ARCADIA, FL, 34266",,,,"Status=CLOSED, evac_cap=50, post_cap=25, pop(g/m/o)=0/0/0, org=SOUTHWEST FLORIDA",27.20638249,-81.85930131,FEMA ESF6-SS (Shelter Locations layer),https://gis.fema.gov/arcgis/rest/services/NSS/FEMA_NSS/FeatureServer/5,,,FL,ARCADIA
Kramer Middle School,"1700 Q St SE, WASHINGTON, DC, 20020",,,,"Status=CLOSED, evac_cap=392, post_cap=196, pop(g/m/o)=0/0/0, org=NATIONAL CAPITAL AREA",38.87070613,-76.98081205,FEMA ESF6-SS (Shelter Locations layer),https://gis.fema.gov/arcgis/rest/services/NSS/FEMA_NSS/FeatureServer/5,,,DC,WASHINGTON
Bethel United Church Of Christ,"4347 Arlington Blvd, ARLINGTON, VA, 22203",,,,"Status=CLOSED, evac_cap=38, post_cap=0, pop(g/m/o)=0/0/0, org=ARLINGTON COUNTY",38.86942909,-77.10640237,FEMA ESF6-SS (Shelter Locations layer),https://gis.fema.gov/arcgis/rest/services/NSS/FEMA_NSS/FeatureServer/5,,,VA,ARLINGTON
Mt. Zion United Methodist Church,"1643 Churchville Road, BEL AIR, MD, 21015",,,,"Status=CLOSED, evac_cap=280, post_cap=140, pop(g/m/o)=None/None/None, org=American Red Cross Of The Chesapeake Region",39.5476118,-76.3099934,FEMA ESF6-SS (Shelter Locations layer),https://gis.fema.gov/arcgis/rest/services/NSS/FEMA_NSS/FeatureServer/5,,,MD,BEL AIR
Sidney Albert Albany Jewish Community Center,"340 Whitehall Road, ALBANY, NY, 12208",,,,"Status=CLOSED, evac_cap=117, post_cap=58, pop(g/m/o)=None/None/None, org=None",42.648642,-73.807134,FEMA ESF6-SS (Shelter Locations layer),https://gis.fema.gov/arcgis/rest/services/NSS/FEMA_NSS/FeatureServer/5,,,NY,ALBANY
INACTIVE St. Paul's Catholic Church,"1208 E. OAK STREET, ARCADIA, FL, 34266",,,,"Status=CLOSED, evac_cap=200, post_cap=100, pop(g/m/o)=0/0/0, org=SOUTHWEST FLORIDA",27.21040246,-81.84601832,FEMA ESF6-SS (Shelter Locations layer),https://gis.fema.gov/arcgis/rest/services/NSS/FEMA_NSS/FeatureServer/5,,,FL,ARCADIA
Lafayette Elementary School,"5701 Broad Branch Rd NW, WASHINGTON, DC, 20015",,,,"Status=CLOSED, evac_cap=213, post_cap=0, pop(g/m/o)=0/0/0, org=NATIONAL CAPITAL AREA",38.96583641,-77.06835205,FEMA ESF6-SS (Shelter Locations layer),https://gis.fema.gov/arcgis/rest/services/NSS/FEMA_NSS/FeatureServer/5,,,DC,WASHINGTON
Calvary United Methodist Church,"2315 S. Grant St., ARLINGTON, VA, 22202",,,,"Status=CLOSED, evac_cap=120, post_cap=0, pop(g/m/o)=0/0/0, org=ARLINGTON COUNTY",38.85313337,-77.05756019,FEMA ESF6-SS (Shelter Locations layer),https://gis.fema.gov/arcgis/rest/services/NSS/FEMA_NSS/FeatureServer/5,,,VA,ARLINGTON
Patterson Mill High School,"85 Patterson Mill Road, BEL AIR, MD, 21015",,,,"Status=CLOSED, evac_cap=800, post_cap=400, pop(g/m/o)=0/None/None, org=American Red Cross Of The Chesapeake Region",39.50705,-76.322311,FEMA ESF6-SS (Shelter Locations layer),https://gis.fema.gov/arcgis/rest/services/NSS/FEMA_NSS/FeatureServer/5,,,MD,BEL AIR
Southgate Elementary School,"30 SOUTHGATE RD, ALBANY, NY, 12211",,,,"Status=CLOSED, evac_cap=291, post_cap=145, pop(g/m/o)=0/0/0, org=AMERICAN RED CROSS OF NORTHEASTERN NY",42.72274519,-73.77578122,FEMA ESF6-SS (Shelter Locations layer),https://gis.fema.gov/arcgis/rest/services/NSS/FEMA_NSS/FeatureServer/5,,,NY,ALBANY
MEMORIAL ELEMENTARY SCHOOL,"851 E HICKORY ST, ARCADIA, FL, 34266",,,,"Status=CLOSED, evac_cap=125, post_cap=62, pop(g/m/o)=0/0/0, org=SOUTHWEST FLORIDA",27.21400875,-81.85124338,FEMA ESF6-SS (Shelter Locations layer),https://gis.fema.gov/arcgis/rest/services/NSS/FEMA_NSS/FeatureServer/5,,,FL,ARCADIA
Lamond Community Center,"20 Tuckerman St NE, WASHINGTON, DC, 20011",,,,"Status=CLOSED, evac_cap=371, post_cap=80, pop(g/m/o)=0/0/0, org=NATIONAL CAPITAL AREA",38.96729331,-77.00861908,FEMA ESF6-SS (Shelter Locations layer),https://gis.fema.gov/arcgis/rest/services/NSS/FEMA_NSS/FeatureServer/5,,,DC,WASHINGTON
Langston Brown Community Center,"4854 Lee Highway, ARLINGTON, VA, 22204",,,,"Status=CLOSED, evac_cap=230, post_cap=115, pop(g/m/o)=None/None/None, org=None",38.89563,-77.12639,FEMA ESF6-SS (Shelter Locations layer),https://gis.fema.gov/arcgis/rest/services/NSS/FEMA_NSS/FeatureServer/5,,,VA,ARLINGTON
Berlin First Baptist Church,"613 WILLIAMS ST, BERLIN, MD, 21811",,,,"Status=CLOSED, evac_cap=130, post_cap=65, pop(g/m/o)=0/0/0, org=LOWER SHORE CHAPTER",38.33321732,-75.21329352,FEMA ESF6-SS (Shelter Locations layer),https://gis.fema.gov/arcgis/rest/services/NSS/FEMA_NSS/FeatureServer/5,,,MD,BERLIN
St. Sophia's Greek Orthodox Chouch,"440 Whitehall Rd, ALBANY, NY, 12208",,,,"Status=CLOSED, evac_cap=150, post_cap=75, pop(g/m/o)=0/0/0, org=AMERICAN RED CROSS OF NORTHEASTERN NY",42.65251714,-73.81421824,FEMA ESF6-SS (Shelter Locations layer),https://gis.fema.gov/arcgis/rest/services/NSS/FEMA_NSS/FeatureServer/5,,,NY,ALBANY
NOCATEE ELEMENTARY SCHOOL,"4846 SW SHORES AVE, ARCADIA, FL, 34266",,,,"Status=CLOSED, evac_cap=141, post_cap=74, pop(g/m/o)=0/0/0, org=SOUTHWEST FLORIDA",27.15556181,-81.88525574,FEMA ESF6-SS (Shelter Locations layer),https://gis.fema.gov/arcgis/rest/services/NSS/FEMA_NSS/FeatureServer/5,,,FL,ARCADIA
Langdon Park Recreation Center,"2901 20th Street NE, WASHINGTON, DC, 20018",,,,"Status=CLOSED, evac_cap=283, post_cap=141, pop(g/m/o)=0/0/0, org=NATIONAL CAPITAL AREA",38.92613134,-76.97615356,FEMA ESF6-SS (Shelter Locations layer),https://gis.fema.gov/arcgis/rest/services/NSS/FEMA_NSS/FeatureServer/5,,,DC,WASHINGTON
Lomax Ame Zion Church,"2704 S 24th Road South, ARLINGTON, VA, 22206",,,,"Status=CLOSED, evac_cap=80, post_cap=0, pop(g/m/o)=0/0/0, org=ARLINGTON COUNTY",38.84798026,-77.08228255,FEMA ESF6-SS (Shelter Locations layer),https://gis.fema.gov/arcgis/rest/services/NSS/FEMA_NSS/FeatureServer/5,,,VA,ARLINGTON
BERLIN INTERMEDIATE SCHOOL,"309 FRANKIN AVE, BERLIN, MD, 21811",,,,"Status=CLOSED, evac_cap=750, post_cap=0, pop(g/m/o)=0/0/0, org=LOWER SHORE CHAPTER",38.3305913,-75.21427378,FEMA ESF6-SS (Shelter Locations layer),https://gis.fema.gov/arcgis/rest/services/NSS/FEMA_NSS/FeatureServer/5,,,MD,BERLIN
SUNSHINE SCHOOL,"ONE LINCOLN PARK, ALBANY, NY, 12202",,,,"Status=CLOSED, evac_cap=130, post_cap=65, pop(g/m/o)=0/0/0, org=AMERICAN RED CROSS OF NORTHEASTERN NY",42.64263359,-73.75978228,FEMA ESF6-SS (Shelter Locations layer),https://gis.fema.gov/arcgis/rest/services/NSS/FEMA_NSS/FeatureServer/5,,,NY,ALBANY
SEVENTH DAY ADVENTISTS CHURCH,"2867 or 2865 SE AMI DR, ARCADIA, FL, 34266",,,,"Status=CLOSED, evac_cap=170, post_cap=85, pop(g/m/o)=None/None/None, org=SOUTHWEST FLORIDA",27.20041591,-81.82878664,FEMA ESF6-SS (Shelter Locations layer),https://gis.fema.gov/arcgis/rest/services/NSS/FEMA_NSS/FeatureServer/5,,,FL,ARCADIA
Macfarland Middle School,"4400 Iowa Ave. NW, WASHINGTON, DC, 20011",,,,"Status=CLOSED, evac_cap=663, post_cap=331, pop(g/m/o)=0/0/0, org=NATIONAL CAPITAL AREA",38.94395591,-77.02735196,FEMA ESF6-SS (Shelter Locations layer),https://gis.fema.gov/arcgis/rest/services/NSS/FEMA_NSS/FeatureServer/5,,,DC,WASHINGTON
Madison Community Center,"3829 North Stafford, ARLINGTON, VA, 22204",,,,"Status=CLOSED, evac_cap=384, post_cap=192, pop(g/m/o)=None/None/None, org=None",38.9232,-77.1244,FEMA ESF6-SS (Shelter Locations layer),https://gis.fema.gov/arcgis/rest/services/NSS/FEMA_NSS/FeatureServer/5,,,VA,ARLINGTON
BERLIN NURSING HOME SPECIAL NEEDS,"9715 HEATHWAY DR, BERLIN, MD, 21811",,,,"Status=CLOSED, evac_cap=0, post_cap=0, pop(g/m/o)=0/0/0, org=LOWER SHORE CHAPTER",38.337422,-75.21001699,FEMA ESF6-SS (Shelter Locations layer),https://gis.fema.gov/arcgis/rest/services/NSS/FEMA_NSS/FeatureServer/5,,,MD,BERLIN
THOMAS O'BRIEN ACADEMY OF SCIENCE & TECHNOLOGY-(TOAST),"100 DELAWARE AVE, ALBANY, NY, 12202",,,,"Status=CLOSED, evac_cap=1800, post_cap=900, pop(g/m/o)=0/0/0, org=AMERICAN RED CROSS OF NORTHEASTERN NY",42.64724087,-73.77014504,FEMA ESF6-SS (Shelter Locations layer),https://gis.fema.gov/arcgis/rest/services/NSS/FEMA_NSS/FeatureServer/5,,,NY,ALBANY
South Florida Community College (Special Needs),"2251 NE Turner Ave., ARCADIA, FL, 34266",,,,"Status=CLOSED, evac_cap=328, post_cap=164, pop(g/m/o)=0/0/0, org=SOUTHWEST FLORIDA",27.23686951,-81.84061339,FEMA ESF6-SS (Shelter Locations layer),https://gis.fema.gov/arcgis/rest/services/NSS/FEMA_NSS/FeatureServer/5,,,FL,ARCADIA
Malcolm X Elementary School,"1351 Alabama Ave SE, WASHINGTON, DC, 20032",,,,"Status=CLOSED, evac_cap=320, post_cap=0, pop(g/m/o)=0/0/0, org=NATIONAL CAPITAL AREA",38.84511142,-76.9867116,FEMA ESF6-SS (Shelter Locations layer),https://gis.fema.gov/arcgis/rest/services/NSS/FEMA_NSS/FeatureServer/5,,,DC,WASHINGTON
Memorial Baptist Church,"3455 N. Glebe Rd, ARLINGTON, VA, 22207",,,,"Status=CLOSED, evac_cap=80, post_cap=0, pop(g/m/o)=0/0/0, org=ARLINGTON COUNTY",38.91230876,-77.13447021,FEMA ESF6-SS (Shelter Locations layer),https://gis.fema.gov/arcgis/rest/services/NSS/FEMA_NSS/FeatureServer/5,,,VA,ARLINGTON
BUCKINGHAM ELEMENTARY SCHOOL,"100 BUCKINGHAM RD, BERLIN, MD, 21811",,,,"Status=CLOSED, evac_cap=1500, post_cap=750, pop(g/m/o)=0/0/0, org=LOWER SHORE CHAPTER",38.31987138,-75.22186406,FEMA ESF6-SS (Shelter Locations layer),https://gis.fema.gov/arcgis/rest/services/NSS/FEMA_NSS/FeatureServer/5,,,MD,BERLIN
VEEDER ELEMENTARY SCHOOL,"25 VEEDER DRIVE, ALBANY, NY, 12205",,,,"Status=CLOSED, evac_cap=300, post_cap=150, pop(g/m/o)=0/0/0, org=AMERICAN RED CROSS OF NORTHEASTERN NY",42.75289047,-73.8665408,FEMA ESF6-SS (Shelter Locations layer),https://gis.fema.gov/arcgis/rest/services/NSS/FEMA_NSS/FeatureServer/5,,,NY,ALBANY
WEST ELEMENTARY SCHOOL,"304 W IMOGENE ST, ARCADIA, FL, 34266",,,,"Status=CLOSED, evac_cap=1500, post_cap=755, pop(g/m/o)=0/0/0, org=SOUTHWEST FLORIDA",27.22171594,-81.86230504,FEMA ESF6-SS (Shelter Locations layer),https://gis.fema.gov/arcgis/rest/services/NSS/FEMA_NSS/FeatureServer/5,,,FL,ARCADIA
Marie Reed Community Learning Center,"2200 CHAMPLAIN ST NW, WASHINGTON, DC, 20009",,,,"Status=CLOSED, evac_cap=282, post_cap=141, pop(g/m/o)=0/0/0, org=NATIONAL CAPITAL AREA",38.9198181,-77.0406979,FEMA ESF6-SS (Shelter Locations layer),https://gis.fema.gov/arcgis/rest/services/NSS/FEMA_NSS/FeatureServer/5,,,DC,WASHINGTON
Mount Olivet United Methodist Chruch,"1500 N. Glebe Rd., ARLINGTON, VA, 22207",,,,"Status=CLOSED, evac_cap=170, post_cap=85, pop(g/m/o)=0/0/0, org=ARLINGTON COUNTY",38.88886344,-77.11888496,FEMA ESF6-SS (Shelter Locations layer),https://gis.fema.gov/arcgis/rest/services/NSS/FEMA_NSS/FeatureServer/5,,,VA,ARLINGTON
BUCKINGHAM PRESBYTERIAN CHURCH,"20 S MAIN ST, BERLIN, MD, 21811",,,,"Status=CLOSED, evac_cap=120, post_cap=60, pop(g/m/o)=0/0/0, org=LOWER SHORE CHAPTER",38.32455685,-75.21890529,FEMA ESF6-SS (Shelter Locations layer),https://gis.fema.gov/arcgis/rest/services/NSS/FEMA_NSS/FeatureServer/5,,,MD,BERLIN
VILLAGE HALL OF COLONIE,"2 THUNDER ROAD, ALBANY, NY, 12205",,,,"Status=CLOSED, evac_cap=180, post_cap=90, pop(g/m/o)=25/None/None, org=AMERICAN RED CROSS OF NORTHEASTERN NY",42.72097353,-73.8321867,FEMA ESF6-SS (Shelter Locations layer),https://gis.fema.gov/arcgis/rest/services/NSS/FEMA_NSS/FeatureServer/5,,,NY,ALBANY
Archer Elementary School,"14533 SW 170th Street, ARCHER, FL, 32618",,,,"Status=CLOSED, evac_cap=301, post_cap=150, pop(g/m/o)=0/None/None, org=NORTH CENTRAL FLORIDA CHAPTER",29.520042,-82.522279,FEMA ESF6-SS (Shelter Locations layer),https://gis.fema.gov/arcgis/rest/services/NSS/FEMA_NSS/FeatureServer/5,,,FL,ARCHER
M C Terrell Elementary School,"3301 Wheeler RD SE, WASHINGTON, DC, 20032",,,,"Status=CLOSED, evac_cap=205, post_cap=102, pop(g/m/o)=0/0/0, org=NATIONAL CAPITAL AREA",38.84232352,-76.9940051,FEMA ESF6-SS (Shelter Locations layer),https://gis.fema.gov/arcgis/rest/services/NSS/FEMA_NSS/FeatureServer/5,,,DC,WASHINGTON
Mount Zion Baptist Church,"3500 S. 19th St., ARLINGTON, VA, 22204",,,,"Status=CLOSED, evac_cap=100, post_cap=0, pop(g/m/o)=0/0/0, org=ARLINGTON COUNTY",38.85325928,-77.08867673,FEMA ESF6-SS (Shelter Locations layer),https://gis.fema.gov/arcgis/rest/services/NSS/FEMA_NSS/FeatureServer/5,,,VA,ARLINGTON
Holy Trinity Cathedral,"11021 Worcester Highway, BERLIN, MD, 21811",,,,"Status=CLOSED, evac_cap=131, post_cap=65, pop(g/m/o)=None/None/None, org=None",38.3796044,-75.2004741,FEMA ESF6-SS (Shelter Locations layer),https://gis.fema.gov/arcgis/rest/services/NSS/FEMA_NSS/FeatureServer/5,,,MD,BERLIN
Westmere Elementary School,"6270 JOHNSTON RD, ALBANY, NY, 12203",,,,"Status=CLOSED, evac_cap=125, post_cap=62, pop(g/m/o)=0/0/0, org=AMERICAN RED CROSS OF NORTHEASTERN NY",42.68727593,-73.86114486,FEMA ESF6-SS (Shelter Locations layer),https://gis.fema.gov/arcgis/rest/services/NSS/FEMA_NSS/FeatureServer/5,,,NY,ALBANY
Astatula Elementary School,"13925 Florida Ave., ASTATULA, FL, 34705",,,,"Status=CLOSED, evac_cap=0, post_cap=160, pop(g/m/o)=0/None/None, org=None",28.711898,-81.725868,FEMA ESF6-SS (Shelter Locations layer),https://gis.fema.gov/arcgis/rest/services/NSS/FEMA_NSS/FeatureServer/5,,,FL,ASTATULA
Merritt Educational Center,"5002 Hayes Street, NE, WASHINGTON, DC, 20019",,,,"Status=CLOSED, evac_cap=210, post_cap=420, pop(g/m/o)=0/0/0, org=NATIONAL CAPITAL AREA",38.90003302,-76.92950572,FEMA ESF6-SS (Shelter Locations layer),https://gis.fema.gov/arcgis/rest/services/NSS/FEMA_NSS/FeatureServer/5,,,DC,WASHINGTON
Our Lady Of Lourdes Church,"830 South 23rd Street, ARLINGTON, VA, 22202",,,,"Status=CLOSED, evac_cap=100, post_cap=0, pop(g/m/o)=0/0/0, org=ARLINGTON COUNTY",38.85325928,-77.06015023,FEMA ESF6-SS (Shelter Locations layer),https://gis.fema.gov/arcgis/rest/services/NSS/FEMA_NSS/FeatureServer/5,,,VA,ARLINGTON
Most Blessed Sacrament Catholic School,"11242 RACETRACK ROAD, BERLIN, MD, 21811",,,,"Status=CLOSED, evac_cap=1000, post_cap=500, pop(g/m/o)=0/0/0, org=LOWER SHORE CHAPTER",38.38993756,-75.19527111,FEMA ESF6-SS (Shelter Locations layer),https://gis.fema.gov/arcgis/rest/services/NSS/FEMA_NSS/FeatureServer/5,,,MD,BERLIN
Herricks Middle School,"7 Hilldale Dr, ALBERTSON, NY, 11507",,,,"Status=CLOSED, evac_cap=735, post_cap=367, pop(g/m/o)=0/0/0, org=NASSAU",40.77175155,-73.65891709,FEMA ESF6-SS (Shelter Locations layer),https://gis.fema.gov/arcgis/rest/services/NSS/FEMA_NSS/FeatureServer/5,,,NY,ALBERTSON
INACTIVE Astatula Baptist Church,"13239 Florida Avenue, ASTATULA, FL, 34705",,,,"Status=CLOSED, evac_cap=0, post_cap=50, pop(g/m/o)=0/0/0, org=FLORIDA COAST TO COAST CHAPTER",28.70998597,-81.74062677,FEMA ESF6-SS (Shelter Locations layer),https://gis.fema.gov/arcgis/rest/services/NSS/FEMA_NSS/FeatureServer/5,,,FL,ASTATULA
M. M. Washington Senior High School,"27 O Street NW, WASHINGTON, DC, 20001",,,,"Status=CLOSED, evac_cap=396, post_cap=198, pop(g/m/o)=0/0/0, org=NATIONAL CAPITAL AREA",38.90856758,-77.00949142,FEMA ESF6-SS (Shelter Locations layer),https://gis.fema.gov/arcgis/rest/services/NSS/FEMA_NSS/FeatureServer/5,,,DC,WASHINGTON
Our Lady Queen Of Peace Church,"2700 S. 19th St., ARLINGTON, VA, 22204",,,,"Status=CLOSED, evac_cap=80, post_cap=0, pop(g/m/o)=0/0/0, org=ARLINGTON COUNTY",38.85445538,-77.08295704,FEMA ESF6-SS (Shelter Locations layer),https://gis.fema.gov/arcgis/rest/services/NSS/FEMA_NSS/FeatureServer/5,,,VA,ARLINGTON
Parke At Ocean Pines,"2 Arcadia Court, BERLIN, MD, 21811",,,,"Status=CLOSED, evac_cap=193, post_cap=96, pop(g/m/o)=0/0/0, org=LOWER SHORE CHAPTER",38.37402738,-75.15692625,FEMA ESF6-SS (Shelter Locations layer),https://gis.fema.gov/arcgis/rest/services/NSS/FEMA_NSS/FeatureServer/5,,,MD,BERLIN
Albion Senior High School,"324 East Ave, ALBION, NY, 14411",,,,"Status=CLOSED, evac_cap=1, post_cap=0, pop(g/m/o)=None/None/None, org=American Red Cross Serving Erie & Niagara Co Chapter",43.24111341,-78.18540308,FEMA ESF6-SS (Shelter Locations layer),https://gis.fema.gov/arcgis/rest/services/NSS/FEMA_NSS/FeatureServer/5,,,NY,ALBION
Astor Community Center,"24148 Ann St., ASTOR, FL, 32102",,,,"Status=CLOSED, evac_cap=0, post_cap=75, pop(g/m/o)=0/0/0, org=FLORIDA COAST TO COAST CHAPTER",29.16159072,-81.53226299,FEMA ESF6-SS (Shelter Locations layer),https://gis.fema.gov/arcgis/rest/services/NSS/FEMA_NSS/FeatureServer/5,,,FL,ASTOR
Murch Elementary School,"4810 36th ST NW, WASHINGTON, DC, 20008",,,,"Status=CLOSED, evac_cap=120, post_cap=0, pop(g/m/o)=0/0/0, org=NATIONAL CAPITAL AREA",38.95223866,-77.06983593,FEMA ESF6-SS (Shelter Locations layer),https://gis.fema.gov/arcgis/rest/services/NSS/FEMA_NSS/FeatureServer/5,,,DC,WASHINGTON
Resurrection Lutheran Church,"6201 Washington Blvd., ARLINGTON, VA, 22205",,,,"Status=CLOSED, evac_cap=90, post_cap=0, pop(g/m/o)=0/0/0, org=ARLINGTON COUNTY",38.88737056,-77.15019935,FEMA ESF6-SS (Shelter Locations layer),https://gis.fema.gov/arcgis/rest/services/NSS/FEMA_NSS/FeatureServer/5,,,VA,ARLINGTON
SHOWELL ELEMENTARY SCHOOL,"11318 SHOWELL SCHOOL RD, BERLIN, MD, 21811",,,,"Status=CLOSED, evac_cap=645, post_cap=323, pop(g/m/o)=0/0/0, org=LOWER SHORE CHAPTER",38.39035125,-75.19391313,FEMA ESF6-SS (Shelter Locations layer),https://gis.fema.gov/arcgis/rest/services/NSS/FEMA_NSS/FeatureServer/5,,,MD,BERLIN
Charles D'amico High School,"302 EAST AVENUE, ALBION, NY, 14411",,,,"Status=CLOSED, evac_cap=250, post_cap=200, pop(g/m/o)=0/0/0, org=ARC IN ORLEANS COUNTY",43.24120434,-78.18354734,FEMA ESF6-SS (Shelter Locations layer),https://gis.fema.gov/arcgis/rest/services/NSS/FEMA_NSS/FeatureServer/5,,,NY,ALBION
INACTIVE First Baptist Church Of Astor,"24731 Ann Street, ASTOR, FL, 32102",,,,"Status=CLOSED, evac_cap=0, post_cap=60, pop(g/m/o)=0/0/0, org=FLORIDA COAST TO COAST CHAPTER",29.16159852,-81.53102179,FEMA ESF6-SS (Shelter Locations layer),https://gis.fema.gov/arcgis/rest/services/NSS/FEMA_NSS/FeatureServer/5,,,FL,ASTOR
Myrtilla Miner Elementary School,"601 15th Street NE, WASHINGTON, DC, 20002",,,,"Status=CLOSED, evac_cap=80, post_cap=40, pop(g/m/o)=0/0/0, org=NATIONAL CAPITAL AREA",38.89731706,-76.98362692,FEMA ESF6-SS (Shelter Locations layer),https://gis.fema.gov/arcgis/rest/services/NSS/FEMA_NSS/FeatureServer/5,,,DC,WASHINGTON
St. John's Episcopal Church,"415 S. Lexington St., ARLINGTON, VA, 22204",,,,"Status=CLOSED, evac_cap=40, post_cap=20, pop(g/m/o)=0/0/0, org=ARLINGTON COUNTY",38.86284605,-77.12742852,FEMA ESF6-SS (Shelter Locations layer),https://gis.fema.gov/arcgis/rest/services/NSS/FEMA_NSS/FeatureServer/5,,,VA,ARLINGTON
Stephen Decatur High School,"9913 SEA HAWK ST, BERLIN, MD, 21811",,,,"Status=CLOSED, evac_cap=2600, post_cap=1300, pop(g/m/o)=0/0/None, org=LOWER SHORE CHAPTER",38.34073565,-75.18867908,FEMA ESF6-SS (Shelter Locations layer),https://gis.fema.gov/arcgis/rest/services/NSS/FEMA_NSS/FeatureServer/5,,,MD,BERLIN
Alden Intermediate / Middle School,"1648 Crittenden Road, ALDEN, NY, 14004",,,,"Status=CLOSED, evac_cap=8250, post_cap=0, pop(g/m/o)=None/None/None, org=None",42.90330567,-78.49212602,FEMA ESF6-SS (Shelter Locations layer),https://gis.fema.gov/arcgis/rest/services/NSS/FEMA_NSS/FeatureServer/5,,,NY,ALDEN
Auburndale High School,"1 Bloodhound Trail, Auburndale, FL, 33823",,,,"Status=CLOSED, evac_cap=None, post_cap=None, pop(g/m/o)=20/None/None, org=None",28.072609,-81.785814,FEMA ESF6-SS (Shelter Locations layer),https://gis.fema.gov/arcgis/rest/services/NSS/FEMA_NSS/FeatureServer/5,,,FL,Auburndale
North Michigan Park Recreation Center,"1333 Emerson St NE, WASHINGTON, DC, 20017",,,,"Status=CLOSED, evac_cap=288, post_cap=80, pop(g/m/o)=0/0/0, org=NATIONAL CAPITAL AREA",38.94998136,-77.01632627,FEMA ESF6-SS (Shelter Locations layer),https://gis.fema.gov/arcgis/rest/services/NSS/FEMA_NSS/FeatureServer/5,,,DC,WASHINGTON
Thomas Jefferson Community Center,"3501 2nd Street, ARLINGTON, VA, 22204",,,,"Status=CLOSED, evac_cap=200, post_cap=200, pop(g/m/o)=0/None/None, org=ARC in the National Capital Region",38.86897428,-77.09609794,FEMA ESF6-SS (Shelter Locations layer),https://gis.fema.gov/arcgis/rest/services/NSS/FEMA_NSS/FeatureServer/5,,,VA,ARLINGTON
Stephen Decatur MIiddle School,"9815 SEAHAWK RD, BERLIN, MD, 21811",,,,"Status=CLOSED, evac_cap=1600, post_cap=800, pop(g/m/o)=0/0/None, org=LOWER SHORE CHAPTER",38.33776789,-75.18807653,FEMA ESF6-SS (Shelter Locations layer),https://gis.fema.gov/arcgis/rest/services/NSS/FEMA_NSS/FeatureServer/5,,,MD,BERLIN
Alden Mennonite Church,"12514 W. Main Street, ALDEN, NY, 14004",,,,"Status=CLOSED, evac_cap=40, post_cap=0, pop(g/m/o)=0/0/0, org=GREATER BUFFALO CHAPTER",42.90036129,-78.51937217,FEMA ESF6-SS (Shelter Locations layer),https://gis.fema.gov/arcgis/rest/services/NSS/FEMA_NSS/FeatureServer/5,,,NY,ALDEN
State Run: Auburndale,"640 C Fred Jones Blvd, Auburndale, FL, 33823",,,,"Status=CLOSED, evac_cap=None, post_cap=None, pop(g/m/o)=0/None/None, org=Independent",,,FEMA ESF6-SS (Shelter Locations layer),https://gis.fema.gov/arcgis/rest/services/NSS/FEMA_NSS/FeatureServer/5,,,FL,Auburndale
